address_id,house_number,country,street,city,Post_Code
01HR84XH51AFET2QJ3EVK5JJR1,50,United Kingdom,Melby,London,G7 7JL
01HR84XH5PBAKH39Z0WC04EEF7,53,United Kingdom,Grayhawk,Swindon,H8 8KM
01HR84XH5QKWAV8NVTXBTZ98WN,29,United Kingdom,Sage,Brampton,I9 9LN
01HR84XH5REMZXX82HW9B34AXK,94,United Kingdom,Roth,Linton,G7 7JL
01HR84XH5S0EB8CYNS898CFGN9,33,United Kingdom,Farragut,Liverpool,J1 1MO
01HR84XH5TWDP0GQYX5G2PZKQV,97,United Kingdom,Lien,Sheffield,J1 1MO
01HR84XH5V661641RTRPB465KP,41,United Kingdom,Monica,Upton,F6 6IK
01HR84XH5WHC38BK6P7F6KAG2H,41,United Kingdom,Sachs,Thorpe,G7 7JL
01HR84XH5XSZW6TJV55KWJVRCM,1,United Kingdom,Hazelcrest,West End,I9 9LN
01HR84XH5Z91RD8TGVTGDMMQ0M,100,United Kingdom,Spohn,Newtown,H8 8KM
01HR84XH603E3Q8AS1207R3ZD0,30,United Kingdom,Stephen,Bradford,I9 9LN
01HR84XH612ZZZDE8NZV4B8T2F,72,United Kingdom,Dryden,Hatton,G7 7JL
01HR84XH63AM8YVM18NE5GGZM9,34,United Kingdom,Old Shore,Norton,G7 7JL
01HR84XH64PKRS7AT4N9PENCRN,12,United Kingdom,Reindahl,Horton,G7 7JL
01HR84XH659TQJSGQ8WW7G0303,9,United Kingdom,Hintze,Dean,E5 5HJ
01HR84XH679TPYJWVGQ24XMKSY,54,United Kingdom,Bunker Hill,London,G7 7JL
01HR84XH68N93MN3WGBKWV7GR2,97,United Kingdom,Dottie,London,G7 7JL
01HR84XH699JY80MRCTNA8KQ7D,3,United Kingdom,Randy,Kinloch,H8 8KM
01HR84XH6A6Y1HH5651J9N3VY0,37,United Kingdom,Londonderry,Newbiggin,J1 1MO
01HR84XH6CZMDS8AHCBM6QZ4HA,10,United Kingdom,Twin Pines,Church End,K2 2NP
01HR84XH6DKRGPBBC40QAWBA3H,2,United Kingdom,Holmberg,Normanton,J1 1MO
01HR84XH6E81FKX8ZT46WXNSNN,100,United Kingdom,Sutteridge,Pentre,G7 7JL
01HR84XH6FDNM0G01KXN5B3Q29,65,United Kingdom,Surrey,Milton,G7 7JL
01HR84XH6GEEXEGJPP3WY6M56D,83,United Kingdom,Stuart,Eaton,F6 6IK
01HR84XH6J29DX8CB6J85YKGW5,3,United Kingdom,Marquette,Upton,F6 6IK
01HR84XH6K0G2JPV8AGE886R7J,90,United Kingdom,Carey,Liverpool,J1 1MO
01HR84XH6MPD9SVPA7FHJ5RGTM,34,United Kingdom,Messerschmidt,London,G7 7JL
01HR84XH6NXQKGNC4QVTH2NVYY,90,United Kingdom,Northport,Dean,E5 5HJ
01HR84XH6P1EBW4V0M83QNDDZF,79,United Kingdom,Springs,Wootton,H8 8KM
01HR84XH6Q4JGA9PGNDFFKJJEC,90,United Kingdom,Chinook,Milton,G7 7JL
01HR84XH6RGBPSK2CW91J35SVG,95,United Kingdom,Lerdahl,Pentre,G7 7JL
01HR84XH543ASHQ5C9V06XQRHM,35,United Kingdom,Eliot,Norton,G7 7JL
01HR84XH5SG99MPTV8MGMHFZJP,7,United Kingdom,Memorial,Kingston,I9 9LN
01HR84XH5T8E8PM385T8AMYEN1,24,United Kingdom,Division,Newbiggin,J1 1MO
01HR84XH5VXS9QSWWWX1AX1MK5,7,United Kingdom,Oak,Birmingham,K2 2NP
01HR84XH5WAPZKEVBMSTWG0Q9Y,9,United Kingdom,Glendale,Seaton,G7 7JL
01HR84XH5W34D02DM2QQ6VB2TG,72,United Kingdom,Jay,London,G7 7JL
01HR84XH5XJP103D1NKFGK64ZE,90,United Kingdom,Shasta,Normanton,J1 1MO
01HR84XH5YRXV71RSAXBG25Y36,30,United Kingdom,Rigney,Denton,G7 7JL
01HR84XH5Z2CVFVQCNQJ7C779N,88,United Kingdom,Sullivan,Charlton,I9 9LN
01HR84XH606F4FGJKGGHE71HGY,31,United Kingdom,Amoth,Milton,G7 7JL
01HR84XH61CD2KBXNBF2K3XZ8J,90,United Kingdom,Warrior,Marston,H8 8KM
01HR84XH62A0SNDHH4EFVSHT5S,3,United Kingdom,Portage,Newtown,H8 8KM
01HR84XH624CAXN0FV193JJ109,25,United Kingdom,Monterey,Bradford,I9 9LN
01HR84XH63GG8S1FVWFX3NG7DV,79,United Kingdom,Mendota,Sutton,G7 7JL
01HR84XH643FWF4Z8RENGZSC8B,24,United Kingdom,Esker,Horton,G7 7JL
01HR84XH655SFVF8WQ55V7T8G2,10,United Kingdom,Maryland,Norton,G7 7JL
01HR84XH66XS615DCCVGT4TTSH,16,United Kingdom,Dorton,Langley,H8 8KM
01HR84XH67EM50ZAYNV837BGRV,39,United Kingdom,Anderson,Birmingham,K2 2NP
01HR84XH67HWXDSSJ4QHFF68MB,21,United Kingdom,Redwing,London,G7 7JL
01HR84XH68MKT3H7TG4NH8DSM7,7,United Kingdom,Riverside,Newport,H8 8KM
01HR84XH69BRG7ZQYPAK87908R,24,United Kingdom,Barby,Ford,E5 5HJ
01HR84XH6A5JJECEPTCFFY2MNJ,95,United Kingdom,Thackeray,Church End,K2 2NP
01HR84XH6BMVDXTZDY0MS03TKT,84,United Kingdom,Moose,Birmingham,K2 2NP
01HR84XH6C568NTQ4Z3CDMF4B5,73,United Kingdom,Monument,Kirkton,H8 8KM
01HR84XH6CCTZ5TQXRQJ8A757P,51,United Kingdom,Moose,Weston,G7 7JL
01HR84XH6D4GV845FHDSJEZ9S8,13,United Kingdom,North,Sheffield,J1 1MO
01HR84XH6EHABDQX92ZYAJTM2T,51,United Kingdom,Acker,Dean,E5 5HJ
01HR84XH6FGT7SC8S0XJB5HB14,1,United Kingdom,Rowland,East End,I9 9LN
01HR84XH6GNPY9MXMVTRJT3NSF,43,United Kingdom,Wayridge,Stapleford,K2 2NP
01HR84XH6HGZHEEGSYDMRJ11QX,72,United Kingdom,High Crossing,Normanton,J1 1MO
01HR84XH6H4ME8AVE6Z16YXW6D,28,United Kingdom,Maple Wood,Craigavon,J1 1MO
01HR84XH5KRMBQEEDV7AAYSCNC,88,United Kingdom,Grayhawk,Marston,H8 8KM
01HR84XH68REC4W0B5KD7JEKDT,29,United Kingdom,Columbus,Stapleford,K2 2NP
01HR84XH694303YF5KNSTJRD9S,60,United Kingdom,Randy,Burnside,I9 9LN
01HR84XH6AF5K3SMGSPBTEK7R2,87,United Kingdom,Orin,Norton,G7 7JL
01HR84XH6B53J0X0NZ8GNY032F,39,United Kingdom,Elgar,Merton,G7 7JL
01HR84XH6CGQRSRHPEBQXYATTS,35,United Kingdom,Mallory,Kingston,I9 9LN
01HR84XH6DHH4XJMGPDNMJ2GAM,1,United Kingdom,Coolidge,Leeds,F6 6IK
01HR84XH6ERYXZ7T9DYMKYRCGP,48,United Kingdom,Russell,West End,I9 9LN
01HR84XH6FKVZ6JSX4QQPP0N6Z,64,United Kingdom,Merchant,Pentre,G7 7JL
01HR84XH6GVG691KCRYT93D5ZS,55,United Kingdom,Gerald,Langley,H8 8KM
01HR84XH6GH32FGZF9AA97QK9D,2,United Kingdom,Warner,London,G7 7JL
01HR84XH6HNDR804849RTM9GZB,21,United Kingdom,Harbort,Halton,G7 7JL
01HR84XH6JAMQAW3GPS7ZH53GW,29,United Kingdom,Wayridge,Whitchurch,K2 2NP
01HR84XH6KW3Z1DVS3K3YP72TC,32,United Kingdom,Morning,London,G7 7JL
01HR84XH6MY1C89MR0BDX96YFJ,46,United Kingdom,Pleasure,Church End,K2 2NP
01HR84XH6N15ZJSH3DBSCVY83F,35,United Kingdom,Reinke,Leeds,F6 6IK
01HR84XH6P56GKW3QD19BWXAHE,40,United Kingdom,Nelson,Horton,G7 7JL
01HR84XH6PVTBTNSDTG576FJ04,27,United Kingdom,5th,Upton,F6 6IK
01HR84XH6Q3JY5GDBS3TGF5539,47,United Kingdom,Rowland,Twyford,H8 8KM
01HR84XH6RH8T869QK0NPMBNDD,51,United Kingdom,Moland,Pentre,G7 7JL
01HR84XH6SX7T5VSGXTBXHXNZV,8,United Kingdom,Anhalt,Church End,K2 2NP
01HR84XH6T3991ZMHQT65BWF3Q,27,United Kingdom,Pankratz,Charlton,I9 9LN
01HR84XH6VPZYBDWCX07HFM2PP,46,United Kingdom,Clarendon,Dean,E5 5HJ
01HR84XH6WFG5D3QT8D5RNPHQN,51,United Kingdom,Sommers,Normanton,J1 1MO
01HR84XH6WTP8KHPEMW6W86W8E,25,United Kingdom,Chive,Whitwell,I9 9LN
01HR84XH6XJWRBR5FP35W6YQSZ,90,United Kingdom,Bobwhite,East End,I9 9LN
01HR84XH6YJPZAT35AD9J0R549,93,United Kingdom,Bluejay,Hatton,G7 7JL
01HR84XH6ZX4RPETJRHH8AJ8RM,29,United Kingdom,Artisan,Tullich,H8 8KM
01HR84XH70ZB5XXCE4W574B19V,12,United Kingdom,Kim,Marston,H8 8KM
01HR84XH71RYPKRW40CT3Z0ZJZ,19,United Kingdom,High Crossing,Leeds,F6 6IK
01HR84XH72T5R64M2NDS30S51X,95,United Kingdom,Crowley,Weston,G7 7JL
01HR84XH62CB06EEBE2ESDKR68,28,United Kingdom,Fuller,Bradford,I9 9LN
01HR84XH6XF2Z52HQ2X03S4TTY,30,United Kingdom,Dakota,Milton,G7 7JL
01HR84XH6YEHTVBD8BD5DN4JB9,6,United Kingdom,Buell,Whitchurch,K2 2NP
01HR84XH6ZXRJRW59Y34HKE6FS,78,United Kingdom,Farragut,Sutton,G7 7JL
01HR84XH6Z302MES1ZSGBA9JKS,75,United Kingdom,Kenwood,Denton,G7 7JL
01HR84XH70DQF38XNHW79A6N3J,64,United Kingdom,Fieldstone,Leeds,F6 6IK
01HR84XH7188ZXC22J0FYEHQ5C,30,United Kingdom,Golden Leaf,Wirral,G7 7JL
01HR84XH71NM99KR4C051ACR9T,68,United Kingdom,Loomis,Horton,G7 7JL
01HR84XH72JBHCNGAWP25BFSV1,75,United Kingdom,Mariners Cove,Preston,H8 8KM
01HR84XH721G7JJ4ACYD5D9E2P,49,United Kingdom,Londonderry,Birmingham,K2 2NP
01HR84XH73ZR5YDG11H40RCWK1,35,United Kingdom,Dawn,Kinloch,H8 8KM
01HR84XH7435RTVJD4VTBE0M4Q,64,United Kingdom,Hayes,Newport,H8 8KM
01HR84XH74VF315B10R6GTJRB1,53,United Kingdom,Melrose,Middleton,J1 1MO
01HR84XH75ETRTK1A2RZ54PBGT,11,United Kingdom,Ridgeway,Craigavon,J1 1MO
01HR84XH76Z1SRB8Q2KDNPFZNF,66,United Kingdom,Browning,Edinburgh,J1 1MO
01HR84XH76RYBFF8R92GX96Y32,29,United Kingdom,Ilene,Sheffield,J1 1MO
01HR84XH7796FNQG2PM05Z99D1,80,United Kingdom,Dennis,Newton,G7 7JL
01HR84XH78ZVSN1GSMJGZW4276,78,United Kingdom,Sycamore,London,G7 7JL
01HR84XH7902EQJX8EZSRPFSP3,13,United Kingdom,Havey,Kingston,I9 9LN
01HR84XH7958T1Y1KREZMMQFSY,10,United Kingdom,Hoffman,Liverpool,J1 1MO
01HR84XH7A3JCT2BAFTNPNYDVH,35,United Kingdom,Starling,Newport,H8 8KM
01HR84XH7BXGJ3QSC470EBPEH7,94,United Kingdom,Dawn,Sutton,G7 7JL
01HR84XH7CH7G744509AWNPPX2,11,United Kingdom,Gerald,Newton,G7 7JL
01HR84XH7CBCPGXA3EYXE2K3RK,22,United Kingdom,Chinook,Sutton,G7 7JL
01HR84XH7DH4K1XSVVH0RDC7P5,73,United Kingdom,Packers,Halton,G7 7JL
01HR84XH7E9YK3WWYJV28SJS10,50,United Kingdom,Huxley,Denton,G7 7JL
01HR84XH7EX55KNYYZ0FEME38V,59,United Kingdom,Petterle,Stapleford,K2 2NP
01HR84XH7F4XNEFPQEM6XFJ6MN,65,United Kingdom,Mifflin,Thorpe,G7 7JL
01HR84XH7GR1YQ1ZA66M89PMV2,39,United Kingdom,6th,Upton,F6 6IK
01HR84XH7G4F7T14CDXJEQVZS2,23,United Kingdom,Main,Leeds,F6 6IK
01HR84XH7H1G1QKFMT6M09NEWK,84,United Kingdom,Glacier Hill,Wirral,G7 7JL
01HR84XH608J7V5QE8695ZJPS2,24,United Kingdom,Carpenter,Carlton,H8 8KM
01HR84XH6PMH3NZ1CQ69THSQ0G,59,United Kingdom,Messerschmidt,London,G7 7JL
01HR84XH6Q1CHAA7P9A1Y84XX7,85,United Kingdom,Maywood,Kinloch,H8 8KM
01HR84XH6RS2BWERQY4EAYHXMD,81,United Kingdom,Helena,Merton,G7 7JL
01HR84XH6SA72AB5SC6W4ECAAR,60,United Kingdom,Jenna,Normanton,J1 1MO
01HR84XH6TGEAM7JRSSQE7HW9B,48,United Kingdom,Valley Edge,Church End,K2 2NP
01HR84XH6VCZJ6QW6V5CP9PHZG,6,United Kingdom,Roxbury,East End,I9 9LN
01HR84XH6WYP357DCFRBVPBDNV,7,United Kingdom,Darwin,Merton,G7 7JL
01HR84XH6W7PMFM51BZPCA1QAH,71,United Kingdom,Hanover,Sutton,G7 7JL
01HR84XH6X6E5PR5K91ZZQXC6R,18,United Kingdom,Mayer,Twyford,H8 8KM
01HR84XH6YRNNM2WRNR8MQNZ7Z,14,United Kingdom,Garrison,Linton,G7 7JL
01HR84XH6ZRR1QV9KFQ1ZQ27VT,100,United Kingdom,Bellgrove,Dean,E5 5HJ
01HR84XH7092E9DP7NJ2DJYVFS,47,United Kingdom,Di Loreto,Kirkton,H8 8KM
01HR84XH71NG60KCKSJVJCB0B7,13,United Kingdom,Barby,Linton,G7 7JL
01HR84XH7221DXZ659MY0GBQYR,58,United Kingdom,Leroy,Swindon,H8 8KM
01HR84XH727GM2XX28X7HXV7HF,79,United Kingdom,Golf View,Stapleford,K2 2NP
01HR84XH73EQPRWFCX07X2J7CN,66,United Kingdom,Pine View,Ashley,G7 7JL
01HR84XH74SSWYRA0BAZ34K8WG,6,United Kingdom,Starling,Preston,H8 8KM
01HR84XH75EJ3FHS998076C67F,69,United Kingdom,Portage,Twyford,H8 8KM
01HR84XH76DN60T77ADBD55QX6,49,United Kingdom,Straubel,Normanton,J1 1MO
01HR84XH77C91H6PA8X0SPSA34,47,United Kingdom,Sycamore,London,G7 7JL
01HR84XH78Q44C3H76RYKCYSM6,35,United Kingdom,Sundown,Pentre,G7 7JL
01HR84XH79DC0MBRT3BZHNZY0B,35,United Kingdom,Huxley,Manchester,K2 2NP
01HR84XH79MCK1CAK24YMKYSYA,85,United Kingdom,Towne,Church End,K2 2NP
01HR84XH7AVV8E3RSJZG42P7D3,73,United Kingdom,Lakeland,Edinburgh,J1 1MO
01HR84XH7BKNP71BHXHP5F1CBQ,74,United Kingdom,Oak,Milton,G7 7JL
01HR84XH7CH7BJMESM1729NG8V,92,United Kingdom,Fairfield,Upton,F6 6IK
01HR84XH7DD380KAYA9FW44YN6,51,United Kingdom,Springview,Birmingham,K2 2NP
01HR84XH7EKF2C29H2KHRC38HC,41,United Kingdom,Northfield,Langley,H8 8KM
01HR84XH7FWXTWKB77VDS8JMNM,83,United Kingdom,Farragut,Upton,F6 6IK
01HR84XH7F43VYECAWQEE6PRQJ,82,United Kingdom,Charing Cross,Hatton,G7 7JL
01HR84XH5TK3DA94606XRHVGKT,25,United Kingdom,Algoma,Denton,G7 7JL
01HR84XH6GEVZNWGXC3AG4PD79,77,United Kingdom,Bonner,Aston,F6 6IK
01HR84XH6HJ9XX38RZXQN8170D,93,United Kingdom,Gina,Whitwell,I9 9LN
01HR84XH6J22Y08W7X77EPWNNG,55,United Kingdom,Schlimgen,Buckland,I9 9LN
01HR84XH6KNFVQGJWGE68NP4N3,64,United Kingdom,Daystar,Sutton,G7 7JL
01HR84XH6M9FBD21SY5MR9DNQ5,22,United Kingdom,Riverside,Glasgow,H8 8KM
01HR84XH6NV8EC33DGZHBZ7HNF,33,United Kingdom,Towne,Glasgow,H8 8KM
01HR84XH6P8WHM27TMTD1BW6KA,40,United Kingdom,Kedzie,Merton,G7 7JL
01HR84XH6QWW47RXVGKXTTXRHT,72,United Kingdom,Fulton,East End,I9 9LN
01HR84XH6RWD60HP3T0XM479A3,27,United Kingdom,Pepper Wood,Eaton,F6 6IK
01HR84XH6RA00JDYTNPD34XYVS,20,United Kingdom,Schurz,Kingston,I9 9LN
01HR84XH6SVC9T34BTDT51M82B,37,United Kingdom,Hooker,East End,I9 9LN
01HR84XH6TZAC0K49SC4XS1RQW,23,United Kingdom,Acker,London,G7 7JL
01HR84XH6WAJ6SVCTQE6SQ8X1Q,70,United Kingdom,Dayton,Aberdeen,I9 9LN
01HR84XH6XC78W7YREGHTAJPNM,10,United Kingdom,Golf View,Sheffield,J1 1MO
01HR84XH6Y1BXJD89AJC8ZY9TE,85,United Kingdom,Reindahl,Charlton,I9 9LN
01HR84XH6ZK1A6HDGYQG7A94KM,23,United Kingdom,Forest,Kinloch,H8 8KM
01HR84XH70N89NC4G9FSFMG39N,16,United Kingdom,Ludington,Horton,G7 7JL
01HR84XH702PFBV1WMSVPRHZNR,69,United Kingdom,Barby,Birmingham,K2 2NP
01HR84XH719MXD3F45MC8Y1SDC,79,United Kingdom,Browning,Halton,G7 7JL
01HR84XH72ZZC4AVYP39702FKP,15,United Kingdom,Ludington,Twyford,H8 8KM
01HR84XH73G9HDJ59998JHBVEN,33,United Kingdom,Welch,Eaton,F6 6IK
01HR84XH74PYED40YCWGTYYSF4,50,United Kingdom,Sutteridge,Edinburgh,J1 1MO
01HR84XH75DA2WM62J5X097C67,53,United Kingdom,Emmet,London,G7 7JL
01HR84XH76H7BE53NRZCW3SYBX,81,United Kingdom,Express,London,G7 7JL
01HR84XH77CQN7P5F9S0GETVYP,43,United Kingdom,Sauthoff,Horton,G7 7JL
01HR84XH78K49G851M92WXCRJ5,37,United Kingdom,Summit,Newton,G7 7JL
01HR84XH79DBF6K82P805GC254,36,United Kingdom,Pepper Wood,Newton,G7 7JL
01HR84XH7ANDXDM9JBR7X18PMZ,80,United Kingdom,Golf Course,Normanton,J1 1MO
01HR84XH7ACDHX4E44RZXSDCXW,23,United Kingdom,Leroy,London,G7 7JL
01HR84XH7BSGS09GTHV8Q3YE14,47,United Kingdom,Carioca,Dean,E5 5HJ
01HR84XH6HSXBKJ5C0GKCG1857,3,United Kingdom,Independence,Upton,F6 6IK
01HR84XH779YQ7E69TYMFZ5BP8,9,United Kingdom,Manley,Liverpool,J1 1MO
01HR84XH785PQJPBQT970N8DPS,17,United Kingdom,Hoffman,London,G7 7JL
01HR84XH796CGPGVA8BA3JCCDJ,57,United Kingdom,Sachs,Church End,K2 2NP
01HR84XH7AYTTT29MP5N85NCMY,79,United Kingdom,Lindbergh,Newton,G7 7JL
01HR84XH7BWGBNDDVQ7FA998BC,2,United Kingdom,Express,Edinburgh,J1 1MO
01HR84XH7CHVJ4P62E15X3AM6Q,83,United Kingdom,Elgar,Belfast,H8 8KM
01HR84XH7DY1XZDEK0GJT7XJXZ,2,United Kingdom,Caliangt,Sutton,G7 7JL
01HR84XH7EP2XG67B0KQH2EVZ5,14,United Kingdom,Scott,Merton,G7 7JL
01HR84XH7EGWPB164BEKBA99W0,43,United Kingdom,Randy,London,G7 7JL
01HR84XH7F75PM2R6BHJTGG03C,3,United Kingdom,Service,Brampton,I9 9LN
01HR84XH7GEMSGB9BK623DQEJK,16,United Kingdom,Summer Ridge,Preston,H8 8KM
01HR84XH7HQBMVVB3G4MT25P81,27,United Kingdom,Coolidge,Denton,G7 7JL
01HR84XH7JQR4DBXH4Y6Y39G3T,70,United Kingdom,Blackbird,Seaton,G7 7JL
01HR84XH7K6HK6SHDZED1N4VF8,35,United Kingdom,Southridge,Upton,F6 6IK
01HR84XH7M6V02PASWV1EQZFNZ,36,United Kingdom,Grim,Horton,G7 7JL
01HR84XH7NZRTKB4HJV3W658R3,52,United Kingdom,Brickson Park,Whitwell,I9 9LN
01HR84XH7NWHM6DP90EWNR9XDX,99,United Kingdom,John Wall,Preston,H8 8KM
01HR84XH7P62FH7743GZCPNN3J,61,United Kingdom,Lien,Newton,G7 7JL
01HR84XH7Q68WJJN2Y7ZKPBMZJ,59,United Kingdom,Lake View,Sutton,G7 7JL
01HR84XH7RXDGW8EHDWDQTKKCP,88,United Kingdom,Northview,Church End,K2 2NP
01HR84XH7SKYRPRG5W3PR0SNKT,49,United Kingdom,Lake View,Whitchurch,K2 2NP
01HR84XH7TDYJ1KEPRDJBAXN19,5,United Kingdom,Walton,Kinloch,H8 8KM
01HR84XH7V0BSHPA4M51822AXE,47,United Kingdom,Little Fleur,Merton,G7 7JL
01HR84XH7VBKWVCQFTWGW05MRE,45,United Kingdom,Nova,Sutton,G7 7JL
01HR84XH7WTPGQEP48SG08F95M,20,United Kingdom,Hansons,Wootton,H8 8KM
01HR84XH7XD6RRB1CR8W1HJ59Y,32,United Kingdom,Arapahoe,Liverpool,J1 1MO
01HR84XH7YZ00J42NNGE5J4QAC,33,United Kingdom,Everett,Brampton,I9 9LN
01HR84XH7Z2P0X275ZFN16RETV,75,United Kingdom,Grayhawk,West End,I9 9LN
01HR84XH803ZCNRKY6EJJ47A5A,15,United Kingdom,Tennessee,Swindon,H8 8KM
01HR84XH80FWC87NRM47EJ4NDP,49,United Kingdom,Pine View,Ford,E5 5HJ
01HR84XH6KBQRB6MBP4YBRR23Z,49,United Kingdom,Almo,Upton,F6 6IK
01HR84XH79J7PNXD50KK0PS7FS,3,United Kingdom,Farmco,Seaton,G7 7JL
01HR84XH7A2EVH5K4ZDF1FWDG8,24,United Kingdom,Bowman,Ford,E5 5HJ
01HR84XH7BBSGVCPY63HQJ7EEG,80,United Kingdom,Summit,Charlton,I9 9LN
01HR84XH7C5G5QQY2XSE6WM00Q,2,United Kingdom,Ronald Regan,Hatton,G7 7JL
01HR84XH7C1GEFWSX2MNX4PN5J,15,United Kingdom,Summerview,Liverpool,J1 1MO
01HR84XH7D38VBWRGMAZPYDSW2,58,United Kingdom,Talmadge,Newport,H8 8KM
01HR84XH7E14C3S641901P3SMB,6,United Kingdom,Gulseth,Manchester,K2 2NP
01HR84XH7FS5B9HFFVK9TFQX5E,52,United Kingdom,Graceland,Norton,G7 7JL
01HR84XH7GC04Z2Y7MMA5THJTW,87,United Kingdom,Thierer,Kingston,I9 9LN
01HR84XH7HDBNYRVBBB2RKSJV7,36,United Kingdom,1st,Church End,K2 2NP
01HR84XH7JBRG85WP3B1HC2ZB8,80,United Kingdom,Quincy,Burnside,I9 9LN
01HR84XH7K01XW9A0EH8H8Y12K,9,United Kingdom,Nevada,Liverpool,J1 1MO
01HR84XH7KPCDFX668XZ3QRQF8,90,United Kingdom,Maryland,Birmingham,K2 2NP
01HR84XH7MSJGHE0QPSV89QDHM,42,United Kingdom,Mallard,Whitchurch,K2 2NP
01HR84XH7NQG6MVCE5M9SNPJ6G,52,United Kingdom,Green,Newtown,H8 8KM
01HR84XH7PRCNFBN6TKNY0THT4,71,United Kingdom,Kropf,Manchester,K2 2NP
01HR84XH7QXVBPZANHNTWD6K06,70,United Kingdom,Killdeer,Kirkton,H8 8KM
01HR84XH7RNAQ2SEENT6R0WVBQ,78,United Kingdom,Farragut,Upton,F6 6IK
01HR84XH7SSBMZZ7B5BJHRXGZ9,45,United Kingdom,Crescent Oaks,Milton,G7 7JL
01HR84XH7TT3MHJ5A9H3BCZS8Y,100,United Kingdom,Fuller,Newport,H8 8KM
01HR84XH7V931E40166JMKJ3JA,55,United Kingdom,Hollow Ridge,Milton,G7 7JL
01HR84XH7VYP5NE84ZKTTZWT49,4,United Kingdom,Welch,Seaton,G7 7JL
01HR84XH7WWRMP8HAF4FC4JFKC,30,United Kingdom,Luster,Carlton,H8 8KM
01HR84XH7X8Y93MX208CKENEQ1,45,United Kingdom,Express,Merton,G7 7JL
01HR84XH7YHSJ0HKH9BMC80V44,27,United Kingdom,Manitowish,Kirkton,H8 8KM
01HR84XH7ZJBYBB3A708WQM14Y,5,United Kingdom,Cambridge,Langley,H8 8KM
01HR84XH80222C1XMNH3FFDA07,98,United Kingdom,Goodland,Wootton,H8 8KM
01HR84XH81MKVR0ZZ8KWSPTTXP,91,United Kingdom,Rigney,Langley,H8 8KM
01HR84XH82WZG3H3EV0JC05X70,89,United Kingdom,Waywood,Tullich,H8 8KM
01HR84XH824DEYVM69E9FVYH44,43,United Kingdom,Thompson,Church End,K2 2NP
01HR84XH70MT5CRDMFNT10F9NP,54,United Kingdom,Mayer,London,G7 7JL
01HR84XH7PC9VM2RFWSWD4SR5S,53,United Kingdom,Petterle,Ford,E5 5HJ
01HR84XH7Q5Q6SD8M8KED4DBS0,13,United Kingdom,Bluejay,Merton,G7 7JL
01HR84XH7REY0WYP19R3VPY12T,90,United Kingdom,Talmadge,London,G7 7JL
01HR84XH7SFVA0ZRACVE7WFNTZ,91,United Kingdom,Muir,Glasgow,H8 8KM
01HR84XH7TAY0DY3Q9C2RF9KK5,35,United Kingdom,Thompson,Kingston,I9 9LN
01HR84XH7VJS8ZA2X5A28R1GQ8,100,United Kingdom,Derek,Norton,G7 7JL
01HR84XH7VE1E32M1X2T2306ES,100,United Kingdom,Del Sol,Seaton,G7 7JL
01HR84XH7WFVJBFKFFBAW9BBNP,9,United Kingdom,Darwin,Marston,H8 8KM
01HR84XH7XWJSJ6K4DE99D64D5,45,United Kingdom,Basil,Carlton,H8 8KM
01HR84XH7YX08A4253CJERN0SK,5,United Kingdom,Muir,Merton,G7 7JL
01HR84XH7ZVRM5ESC4T7S7WECA,46,United Kingdom,6th,Newtown,H8 8KM
01HR84XH80963TVJXFM9QGNG1G,98,United Kingdom,Tennessee,Newtown,H8 8KM
01HR84XH81BG0VKNWFHB3HYDXR,15,United Kingdom,Loftsgordon,Brampton,I9 9LN
01HR84XH82BZZ3KHVVMWCGNCFF,53,United Kingdom,Thackeray,Thorpe,G7 7JL
01HR84XH826D32ZXX6T7TW4M7R,69,United Kingdom,Coleman,Birmingham,K2 2NP
01HR84XH834ZW3PES4VRM9BJH6,77,United Kingdom,Eagan,Seaton,G7 7JL
01HR84XH84R76F2YWP88M7Y3RF,40,United Kingdom,Pierstorff,Weston,G7 7JL
01HR84XH859JP7PRM8AAXJF4J1,80,United Kingdom,Mcguire,Upton,F6 6IK
01HR84XH861RY10PRM1FNZV8RQ,44,United Kingdom,Porter,Newton,G7 7JL
01HR84XH87DCE957WMY6QCJ7Z6,2,United Kingdom,Anderson,Norton,G7 7JL
01HR84XH884XFEV9YBARGW8K8J,72,United Kingdom,Graceland,Halton,G7 7JL
01HR84XH88WYYJ6FCHEBNNXBAT,65,United Kingdom,Springs,Hatton,G7 7JL
01HR84XH89YQYHH2AAA0WDH1N6,27,United Kingdom,Browning,Birmingham,K2 2NP
01HR84XH8AH14NKM0TCGHX090B,56,United Kingdom,Pond,Wirral,G7 7JL
01HR84XH8B542C9BG9PR224D7T,79,United Kingdom,Mayfield,Birmingham,K2 2NP
01HR84XH8CXJPPTXBG9DQ3WDD7,52,United Kingdom,Judy,Norton,G7 7JL
01HR84XH8DWPJ7S1VGE5F3FF7X,3,United Kingdom,Bunker Hill,Tullich,H8 8KM
01HR84XH8D2T8DSKJBT1JB4D79,100,United Kingdom,Katie,Merton,G7 7JL
01HR84XH8E8Q5N6HJJQ6YNHFX1,59,United Kingdom,Straubel,Kingston,I9 9LN
01HR84XH8F082PNAN9AAY3DT35,60,United Kingdom,Hintze,Norton,G7 7JL
01HR84XH6Q2PAW7AXKKJYRPE6H,9,United Kingdom,Delladonna,London,G7 7JL
01HR84XH7E04HGA6BEVSZ4SEHN,8,United Kingdom,Holmberg,Newtown,H8 8KM
01HR84XH7FJ9W8NCME94MBBVCW,9,United Kingdom,Vidon,Newport,H8 8KM
01HR84XH7GHPG1K5NKZ2S2WYFZ,72,United Kingdom,Summer Ridge,Halton,G7 7JL
01HR84XH7HZDMZFGWCQ1YE9YZW,27,United Kingdom,Daystar,Newton,G7 7JL
01HR84XH7J4Y4S0V8C5GZN4R27,53,United Kingdom,Arkansas,Merton,G7 7JL
01HR84XH7J9FKYZTVV66S5P0H1,1,United Kingdom,Bluestem,Leeds,F6 6IK
01HR84XH7KQSRB2GDHPE6P4PBF,20,United Kingdom,Sutteridge,Brampton,I9 9LN
01HR84XH7MDGN9X4CTC719WX7A,42,United Kingdom,Artisan,London,G7 7JL
01HR84XH7NSVY8GEE11880W1R2,55,United Kingdom,Westridge,Swindon,H8 8KM
01HR84XH7P1Z3XXRNKJHD9D4XF,27,United Kingdom,Lindbergh,Buckland,I9 9LN
01HR84XH7PZZQADWYN890QVC7N,93,United Kingdom,Michigan,Newton,G7 7JL
01HR84XH7Q65BW8TWBPT7Y7BPX,38,United Kingdom,Almo,Eaton,F6 6IK
01HR84XH7RVFSW6A8N22STXAZS,55,United Kingdom,Harper,Wirral,G7 7JL
01HR84XH7SP1M54BANJ8ATYD5J,78,United Kingdom,Garrison,Birmingham,K2 2NP
01HR84XH7TWNCM15EEE558JZ8Z,37,United Kingdom,Russell,Ford,E5 5HJ
01HR84XH7VPT8SMVZTANN99WYT,36,United Kingdom,Raven,Whitchurch,K2 2NP
01HR84XH7V327EPTYG3W3CEYJF,15,United Kingdom,Warbler,Liverpool,J1 1MO
01HR84XH7WDP02H8R7T13M9YFJ,48,United Kingdom,Badeau,Upton,F6 6IK
01HR84XH7XA1YA3B2PDYBHW8Q7,42,United Kingdom,Kenwood,Newton,G7 7JL
01HR84XH7YETQZ010WKKGB9PYF,44,United Kingdom,Westend,East End,I9 9LN
01HR84XH7ZDA5A2RX4EJXNWCJ9,5,United Kingdom,Grover,Halton,G7 7JL
01HR84XH80H3XGYRJPP6ZSEK1X,28,United Kingdom,Farragut,Denton,G7 7JL
01HR84XH8088CV3921J92M5S21,37,United Kingdom,Fair Oaks,Burnside,I9 9LN
01HR84XH819N9WMQ34ET9DC6T1,71,United Kingdom,Melby,London,G7 7JL
01HR84XH8294D0R3B79FCHPC4A,78,United Kingdom,Grasskamp,Merton,G7 7JL
01HR84XH83E3TY2NN72T4T46YN,57,United Kingdom,Amoth,Manchester,K2 2NP
01HR84XH84QZB5AP0B9PC2Y7QQ,10,United Kingdom,Porter,Church End,K2 2NP
01HR84XH85AM3SP431WKNA6RS1,99,United Kingdom,Karstens,Norton,G7 7JL
01HR84XH85EP2X8EKH073YT68G,29,United Kingdom,Michigan,Seaton,G7 7JL
01HR84XH8651ZRJ2R9Z7QYA9Z6,76,United Kingdom,Briar Crest,Edinburgh,J1 1MO
01HR84XH7DCY3K0TV7VEKXT6DY,64,United Kingdom,John Wall,London,G7 7JL
01HR84XH83KBWA03V793BXYSCR,23,United Kingdom,Redwing,Dean,E5 5HJ
01HR84XH84CE4WPQQN7C5HC64S,40,United Kingdom,Brickson Park,Stapleford,K2 2NP
01HR84XH854FNHEA1W2FASH4CF,82,United Kingdom,Fallview,Newbiggin,J1 1MO
01HR84XH869EAWEKV3NJVE6JNM,7,United Kingdom,Rieder,Preston,H8 8KM
01HR84XH87QEE8GY9E8MHWZP8B,69,United Kingdom,Darwin,Carlton,H8 8KM
01HR84XH8807363KNSK09Z5MS4,51,United Kingdom,Gale,London,G7 7JL
01HR84XH8838ATR89WKHDADX2K,15,United Kingdom,Oak Valley,Buckland,I9 9LN
01HR84XH892NXJBXV75659ZGE4,24,United Kingdom,Onsgard,Brampton,I9 9LN
01HR84XH8AJJRAQSVYX6PHE4TY,38,United Kingdom,Tennyson,Sheffield,J1 1MO
01HR84XH8BFZF2MHPWKN4230WM,7,United Kingdom,Eastlawn,Hatton,G7 7JL
01HR84XH8CT2VQZ8SFF32J340M,98,United Kingdom,Holmberg,Kinloch,H8 8KM
01HR84XH8DE1NH3XCXVPYXPF5T,87,United Kingdom,Jenifer,Upton,F6 6IK
01HR84XH8D59QTSXGWAGR8XS9T,42,United Kingdom,Lotheville,Tullich,H8 8KM
01HR84XH8EW70KYQ589HRJCCZ5,99,United Kingdom,Westend,Burnside,I9 9LN
01HR84XH8FGEEFBBDXA4FVWGPT,4,United Kingdom,Dwight,Birmingham,K2 2NP
01HR84XH8GY3VK4VS936XMV1SD,27,United Kingdom,Elgar,Brampton,I9 9LN
01HR84XH8HY8CZVKN0RNF4EYWG,67,United Kingdom,Old Gate,Ford,E5 5HJ
01HR84XH8JRB2MWMJVXHHT56SE,61,United Kingdom,Moulton,Merton,G7 7JL
01HR84XH8KVKMDH59S1M1Z01MA,59,United Kingdom,Pepper Wood,Middleton,J1 1MO
01HR84XH8KBZ8V10PM179DQH1S,46,United Kingdom,Rowland,Newtown,H8 8KM
01HR84XH8MRXVVVQZX3K7NBAZ1,7,United Kingdom,Merchant,Ford,E5 5HJ
01HR84XH8NNTECEQ04W9C1CS1T,20,United Kingdom,Anderson,Bristol,H8 8KM
01HR84XH8PVV7ZMRZNVED4TZKH,59,United Kingdom,Monterey,Bradford,I9 9LN
01HR84XH8Q9ECF2H831EJNJ789,87,United Kingdom,Tennessee,Bristol,H8 8KM
01HR84XH8RCDAQVDBYSWRARMF9,10,United Kingdom,Crescent Oaks,Glasgow,H8 8KM
01HR84XH8RJ51W2REVJ2Q80N03,74,United Kingdom,Trailsway,West End,I9 9LN
01HR84XH8S2W7MR4DCEAZXD6E0,15,United Kingdom,Hintze,Upton,F6 6IK
01HR84XH8TQRP00W67S4VY6NY7,54,United Kingdom,Emmet,Carlton,H8 8KM
01HR84XH8VSKQM6RXHK34AYCZC,4,United Kingdom,Milwaukee,Craigavon,J1 1MO
01HR84XH8W6KMB6G5JQVZNJA6D,38,United Kingdom,Del Mar,Pentre,G7 7JL
01HR84XH7HXZ7Z7PZ459HZJE6F,74,United Kingdom,Arrowood,Walton,G7 7JL
01HR84XH83RF9XWBAW3CTTQ5MZ,1,United Kingdom,Bunting,Newton,G7 7JL
01HR84XH831281DQXZRAWY4CYV,53,United Kingdom,Debs,Newbiggin,J1 1MO
01HR84XH848D1HFBJ7ESS98XEC,4,United Kingdom,Green,Leeds,F6 6IK
01HR84XH85SPVAWNHF75WZ5F4K,70,United Kingdom,North,Carlton,H8 8KM
01HR84XH85S80WY9BQ1KJ9BQ20,42,United Kingdom,Comanche,London,G7 7JL
01HR84XH86BJ63CE9GHJZ44726,76,United Kingdom,Rieder,Normanton,J1 1MO
01HR84XH86TEN85NMBCSYYZQ17,27,United Kingdom,Pine View,Stapleford,K2 2NP
01HR84XH870KRY5927C2YY0Q4A,6,United Kingdom,Algoma,Newport,H8 8KM
01HR84XH87QED6CYM94M8J6ZV1,80,United Kingdom,Shelley,Upton,F6 6IK
01HR84XH88VJKCNB24DYC8WXB2,72,United Kingdom,Bobwhite,Carlton,H8 8KM
01HR84XH894C2TH0CN3GJMY49A,97,United Kingdom,Roth,Manchester,K2 2NP
01HR84XH896FC7ACXXFRD419H0,86,United Kingdom,Derek,Sheffield,J1 1MO
01HR84XH8AWV3PN58G0FCXJ2T7,50,United Kingdom,Eliot,Twyford,H8 8KM
01HR84XH8A8JVVRME7AQ804CHE,55,United Kingdom,Anniversary,Whitchurch,K2 2NP
01HR84XH8BM3R0VY06X2PVZY7V,5,United Kingdom,Goodland,Denton,G7 7JL
01HR84XH8C872MTT7RX2JHBHVT,52,United Kingdom,Packers,Kinloch,H8 8KM
01HR84XH8CNAR7SYNVQ5GZ95ZZ,57,United Kingdom,International,Upton,F6 6IK
01HR84XH8D2MPFP1TP69Z4T18N,7,United Kingdom,Cody,Whitchurch,K2 2NP
01HR84XH8DWC4283EAZAG6FQNR,42,United Kingdom,Northwestern,Ashley,G7 7JL
01HR84XH8ERMSMVDDFZYR65Z0C,45,United Kingdom,Clemons,Merton,G7 7JL
01HR84XH8EJW0NR3126V26YRC7,16,United Kingdom,Maryland,Hatton,G7 7JL
01HR84XH8F1CW7K6HFP3E00P9T,12,United Kingdom,Ruskin,Aberdeen,I9 9LN
01HR84XH8GHVHBC2ZFW9T3YGC5,73,United Kingdom,Shoshone,Seaton,G7 7JL
01HR84XH8G5Y0FNYQJBQQDG8H4,86,United Kingdom,Maple,Tullich,H8 8KM
01HR84XH8HHJYM3Y5EAMDMEFDW,34,United Kingdom,Old Shore,Dean,E5 5HJ
01HR84XH8H1TY169TNX3X197GK,70,United Kingdom,Jenifer,London,G7 7JL
01HR84XH8JE6G2SKJE9E59YT8W,50,United Kingdom,Miller,Norton,G7 7JL
01HR84XH8J8SY5DQPA5RD0Z5S9,89,United Kingdom,Sauthoff,Manchester,K2 2NP
01HR84XH8KT3V3NTYST0V81R63,61,United Kingdom,Cottonwood,Buckland,I9 9LN
01HR84XH8KTNHCY3YW98ZM2CQA,66,United Kingdom,Surrey,Craigavon,J1 1MO
01HR84XH74GA9G6GKBR7XG2VT7,5,United Kingdom,Heath,Marston,H8 8KM
01HR84XH7TMGZWFW6RF8Q4JYKA,13,United Kingdom,Montana,Whitchurch,K2 2NP
01HR84XH7VNG8W8TDDVST6YWKC,93,United Kingdom,Hoard,Dean,E5 5HJ
01HR84XH7V1GH9EAXZ4M575BSP,54,United Kingdom,Summerview,Liverpool,J1 1MO
01HR84XH7WZ1FDY0S6Q0QV17D7,7,United Kingdom,Valley Edge,Sheffield,J1 1MO
01HR84XH7XZTC678WE52NP9JFK,76,United Kingdom,Glendale,Newtown,H8 8KM
01HR84XH7YJZ844JHJ28R6S1Z7,82,United Kingdom,Dovetail,Whitwell,I9 9LN
01HR84XH7ZNAS4C9K79DPE2ZXF,67,United Kingdom,Meadow Vale,Belfast,H8 8KM
01HR84XH80HP4ETV5E6BPTTX3C,75,United Kingdom,Golf Course,London,G7 7JL
01HR84XH809EZ1XJKGEYH9JX3N,66,United Kingdom,Calypso,Linton,G7 7JL
01HR84XH81C3DQ6A3Z1DPEZ225,94,United Kingdom,Superior,Upton,F6 6IK
01HR84XH8224WWVSZ2CQWN7YET,61,United Kingdom,Golf View,Milton,G7 7JL
01HR84XH83S93WKFMB3CT2KY7Q,66,United Kingdom,Shasta,Ford,E5 5HJ
01HR84XH84T9JFGY8TJ7GVM80E,31,United Kingdom,Lotheville,Church End,K2 2NP
01HR84XH84PZXGNEHA61TYZQXK,39,United Kingdom,Namekagon,Liverpool,J1 1MO
01HR84XH8518JM5QJN9D6NEMNP,41,United Kingdom,Grover,Wootton,H8 8KM
01HR84XH86EFEH62AVBQTRZAKK,16,United Kingdom,Warner,Liverpool,J1 1MO
01HR84XH87F7K78FWVEESG26JQ,34,United Kingdom,Bartelt,Dean,E5 5HJ
01HR84XH8835ADFQ1GP8XMYYRV,19,United Kingdom,Hermina,Newton,G7 7JL
01HR84XH89AHM2FFS4Z1RFA2GR,45,United Kingdom,Mosinee,Bradford,I9 9LN
01HR84XH8939BZF2E95Q1HC4T0,52,United Kingdom,Forest Dale,Merton,G7 7JL
01HR84XH8A1VQHW5DMJGMYY7YD,2,United Kingdom,Springs,Seaton,G7 7JL
01HR84XH8B9D6AB19B7JJXXPX6,39,United Kingdom,Havey,Eaton,F6 6IK
01HR84XH8CV6520WVDED2Z1WTT,82,United Kingdom,Kennedy,Liverpool,J1 1MO
01HR84XH8DVGK628CMXHR061Y5,15,United Kingdom,Daystar,Pentre,G7 7JL
01HR84XH8D5WSMGWNJ91Q1WCEK,15,United Kingdom,Southridge,Walton,G7 7JL
01HR84XH8EJFRH43Z2HCBP94M9,61,United Kingdom,Shoshone,Church End,K2 2NP
01HR84XH8FGY9FDJFANP9B5KFJ,95,United Kingdom,Bartelt,Sheffield,J1 1MO
01HR84XH8G242MFRTT0JXVARD1,6,United Kingdom,Dakota,Swindon,H8 8KM
01HR84XH8HD7DWD1CC55YNZWC6,77,United Kingdom,Thackeray,Newton,G7 7JL
01HR84XH8H65QHJC13S0081FQ3,25,United Kingdom,5th,Halton,G7 7JL
01HR84XH7HBECFT4FY46B86XKE,15,United Kingdom,Warbler,Liverpool,J1 1MO
01HR84XH7ZTT3J373S13AQ3XE5,2,United Kingdom,Comanche,Preston,H8 8KM
01HR84XH7ZV8K3N5620NB89JDP,77,United Kingdom,Loftsgordon,Hatton,G7 7JL
01HR84XH804RD1H1CKZEDJT7NP,55,United Kingdom,Delladonna,Church End,K2 2NP
01HR84XH808BE6TGBRK495W6DM,35,United Kingdom,Stephen,Church End,K2 2NP
01HR84XH81VAC7A232EFH2C75R,28,United Kingdom,Forest Run,Church End,K2 2NP
01HR84XH81FC4YY572VZGT6GK1,7,United Kingdom,Dryden,Milton,G7 7JL
01HR84XH81PVJGKMRSCDCJ1T2D,24,United Kingdom,Onsgard,Newton,G7 7JL
01HR84XH82WX63QQ9S2SZFRHER,7,United Kingdom,Fieldstone,London,G7 7JL
01HR84XH82WWM7VB1PR27YTD9X,41,United Kingdom,2nd,Liverpool,J1 1MO
01HR84XH83BSC897V948N3HRT7,2,United Kingdom,Porter,Marston,H8 8KM
01HR84XH83JSVXFSJQ14REPQ90,10,United Kingdom,Roxbury,London,G7 7JL
01HR84XH847XTV4BKRJV3SY6PJ,35,United Kingdom,Debra,Aston,F6 6IK
01HR84XH84TX87S5T11HJVMCVX,94,United Kingdom,Waywood,Newtown,H8 8KM
01HR84XH840MDT9273XPRRK6WA,9,United Kingdom,Sheridan,Eaton,F6 6IK
01HR84XH85ZVTJ18KMXD2RF39V,9,United Kingdom,Morrow,East End,I9 9LN
01HR84XH85EQZN5WZ8SRR39MVA,61,United Kingdom,Granby,Upton,F6 6IK
01HR84XH86J3BE1CBNSDV20E4J,79,United Kingdom,Doe Crossing,Milton,G7 7JL
01HR84XH86VQPJW5022GS0YJ38,70,United Kingdom,Mockingbird,Buckland,I9 9LN
01HR84XH870NWRFPTN1DK4C9F0,68,United Kingdom,Goodland,Newton,G7 7JL
01HR84XH877BD9GSV4JTPSCPH8,69,United Kingdom,Shoshone,Denton,G7 7JL
01HR84XH87PK24VM8M2C963YAG,13,United Kingdom,Norway Maple,Liverpool,J1 1MO
01HR84XH887V9SRYN0CDDB8TJP,84,United Kingdom,Onsgard,Bradford,I9 9LN
01HR84XH88E5114R0PEFVHQM11,57,United Kingdom,Truax,Newton,G7 7JL
01HR84XH89GS0DQNCH2E4B2326,91,United Kingdom,Prairie Rose,Langley,H8 8KM
01HR84XH89PPPNBRYT794B25ZT,7,United Kingdom,Morning,Liverpool,J1 1MO
01HR84XH89A0VZZNE9R8E58QYV,24,United Kingdom,Main,Sutton,G7 7JL
01HR84XH8A5Y77W03MV3FJ486M,34,United Kingdom,Towne,Preston,H8 8KM
01HR84XH8A8PFESQMZEBGFPEV8,76,United Kingdom,Dryden,Buckland,I9 9LN
01HR84XH8BMTRKJT2ZHR5VEM8N,57,United Kingdom,Melby,Liverpool,J1 1MO
01HR84XH8B1XTV2DJSH9NBZTDM,78,United Kingdom,Oriole,Newbiggin,J1 1MO
01HR84XH7W53G17PGTYSNBAYY5,7,United Kingdom,Gerald,Carlton,H8 8KM
01HR84XH8JT9JY1XT3P118FR14,56,United Kingdom,Stone Corner,Denton,G7 7JL
01HR84XH8KCG2H3S95CAWVFGHM,41,United Kingdom,Florence,Tullich,H8 8KM
01HR84XH8M2M97B4W8Q5KHCKTJ,49,United Kingdom,Crescent Oaks,Newport,H8 8KM
01HR84XH8N9BEAZQQ99CBYE08F,20,United Kingdom,Stone Corner,East End,I9 9LN
01HR84XH8NYECA3K76D7QME2AC,61,United Kingdom,Hoffman,Aston,F6 6IK
01HR84XH8PSXN8G2NP8RMPJZ2K,29,United Kingdom,Sommers,Bristol,H8 8KM
01HR84XH8QA392V37V6MAWVEF6,26,United Kingdom,Dapin,Ashley,G7 7JL
01HR84XH8RNT56V7ERXKX3P53P,27,United Kingdom,Blaine,Edinburgh,J1 1MO
01HR84XH8SHYMWN1KBX408KVMW,26,United Kingdom,Schiller,Kinloch,H8 8KM
01HR84XH8TKJ176KNJN92TEYHK,100,United Kingdom,Melby,Sheffield,J1 1MO
01HR84XH8V28Y88CMP9SYWTWVJ,54,United Kingdom,High Crossing,Newtown,H8 8KM
01HR84XH8WF4Q80VZMDN4ZS89M,85,United Kingdom,Harper,Horton,G7 7JL
01HR84XH8XY31QG40AJ3X01C2K,85,United Kingdom,Twin Pines,London,G7 7JL
01HR84XH8YNQM58FVYG9FJCVEY,87,United Kingdom,Spohn,Brampton,I9 9LN
01HR84XH8ZZBW8N72R70N2ZPBG,88,United Kingdom,Eagle Crest,Weston,G7 7JL
01HR84XH8Z4Y4BN43N7K7X9TMM,52,United Kingdom,Spenser,Upton,F6 6IK
01HR84XH903AB2YVEEJTEGMM3W,33,United Kingdom,Anzinger,Bradford,I9 9LN
01HR84XH918PQCAYJC9E732V1G,96,United Kingdom,Anniversary,Seaton,G7 7JL
01HR84XH928B06AD4P51RXVX32,77,United Kingdom,Kensington,Horton,G7 7JL
01HR84XH930VRJ9A5DERR1WET9,34,United Kingdom,Old Gate,Seaton,G7 7JL
01HR84XH9446W8V40W8A4J7H69,2,United Kingdom,Independence,Hatton,G7 7JL
01HR84XH95V1GZNQQD0ZB4R304,5,United Kingdom,Granby,Edinburgh,J1 1MO
01HR84XH96S276SRX4V1BYEKFQ,92,United Kingdom,Warrior,Merton,G7 7JL
01HR84XH977MFE5Y02G6KKWPW1,5,United Kingdom,Huxley,Craigavon,J1 1MO
01HR84XH9823C3AJV20N0JB7P7,7,United Kingdom,Ilene,Ford,E5 5HJ
01HR84XH99NXH2CGZ95R3N75NH,50,United Kingdom,Manley,East End,I9 9LN
01HR84XH9A06R6GW74TKYCZGAG,90,United Kingdom,Manley,Weston,G7 7JL
01HR84XH9A3H98T9CC6EKBR47D,89,United Kingdom,Butternut,Whitwell,I9 9LN
01HR84XH9BTJTHFF3RB1B50B87,79,United Kingdom,Elmside,Newton,G7 7JL
01HR84XH9C83YPT05QNFTW5T5Y,54,United Kingdom,Oak,Glasgow,H8 8KM
01HR84XH8WPN3ZBGSEX4JNV58E,34,United Kingdom,Summit,Pentre,G7 7JL
01HR84XH9H2CTW8Y4JN6QMH50A,90,United Kingdom,Melvin,Tullich,H8 8KM
01HR84XH9J7MNM3Z776RAWF3T2,78,United Kingdom,Everett,Upton,F6 6IK
01HR84XH9K1R6K8VQKBX0Q4H7H,51,United Kingdom,Alpine,Linton,G7 7JL
01HR84XH9MG5J8DCJQTPSPE6B8,17,United Kingdom,Rowland,Denton,G7 7JL
01HR84XH9NZS379863Q8XW537T,100,United Kingdom,Katie,Marston,H8 8KM
01HR84XH9PNEF9HN8V258VWWV2,88,United Kingdom,Anzinger,Swindon,H8 8KM
01HR84XH9QYFE2TCGKT5X84A6A,80,United Kingdom,Hoffman,Merton,G7 7JL
01HR84XH9R7X4R4W7M2T655AFN,70,United Kingdom,Oxford,Norton,G7 7JL
01HR84XH9RTS5FYZJG1AS4FVZC,93,United Kingdom,Doe Crossing,Upton,F6 6IK
01HR84XH9S5Y0Y3XHR1Q5K77QJ,92,United Kingdom,Monterey,Dean,E5 5HJ
01HR84XH9T9QAN2RGPZR4YH3T4,13,United Kingdom,Helena,Newtown,H8 8KM
01HR84XH9VRCAZX0REMNEC8WWJ,7,United Kingdom,Bashford,Middleton,J1 1MO
01HR84XH9W575NBMG49BMS6K2A,79,United Kingdom,Park Meadow,London,G7 7JL
01HR84XH9X7W8S7W686D6VA636,66,United Kingdom,Marcy,Brampton,I9 9LN
01HR84XH9YK935BD1KGWYYFNJ5,15,United Kingdom,Morningstar,Merton,G7 7JL
01HR84XH9Y441WXBMBCMGD1CC2,91,United Kingdom,Rutledge,Newton,G7 7JL
01HR84XH9Z0KJ02PX174YA4W3K,77,United Kingdom,Crescent Oaks,Milton,G7 7JL
01HR84XHA0KMZSD8437YTJWWSB,79,United Kingdom,Forest,Liverpool,J1 1MO
01HR84XHA1S42KXD2AZQGJZN0S,89,United Kingdom,Badeau,Upton,F6 6IK
01HR84XHA230PYKA9DVVH1PCS9,23,United Kingdom,Hallows,London,G7 7JL
01HR84XHA3B1M11XPKJ94RHRQP,98,United Kingdom,Gale,Stapleford,K2 2NP
01HR84XHA4E97EDKWA5FPXPAFJ,22,United Kingdom,Iowa,Edinburgh,J1 1MO
01HR84XHA4AGC1ZF86TA1GEFQN,71,United Kingdom,Bellgrove,Denton,G7 7JL
01HR84XHA59F9N5P6D4EJMNB45,61,United Kingdom,Sunnyside,Newtown,H8 8KM
01HR84XHA65QTWSAT4ZRM6GX0X,22,United Kingdom,Toban,Newton,G7 7JL
01HR84XHA7KTNWF6A8S14Y3V4M,87,United Kingdom,Hintze,Dean,E5 5HJ
01HR84XHA80YC1HQDHHV6ZQR71,40,United Kingdom,Miller,Milton,G7 7JL
01HR84XHA9AJR5ZEWN44R18Z6X,89,United Kingdom,Roxbury,Stapleford,K2 2NP
01HR84XHA93MZANY1YAP91YZGP,41,United Kingdom,Quincy,Sheffield,J1 1MO
01HR84XHAA48XM4W46KMDG9CK5,89,United Kingdom,Sauthoff,Norton,G7 7JL
01HR84XH8TSVVYHD3DHRQ076YM,95,United Kingdom,Steensland,Leeds,F6 6IK
01HR84XH9DQEP1FXBCNHA2ZFDW,48,United Kingdom,Prairieview,London,G7 7JL
01HR84XH9E86M3MAC0W3WKRE85,22,United Kingdom,Ridge Oak,Sheffield,J1 1MO
01HR84XH9ERVQ7WB2Z4WM8XA47,13,United Kingdom,Monica,Milton,G7 7JL
01HR84XH9FGQ7B8SGNJM3PYR6Y,23,United Kingdom,Helena,Hatton,G7 7JL
01HR84XH9FFG25K0KQJWMJ8MSN,70,United Kingdom,Parkside,Leeds,F6 6IK
01HR84XH9GQYYMY761580KJ4DG,14,United Kingdom,Gateway,Pentre,G7 7JL
01HR84XH9HJ6H9MBTW837S3J2E,88,United Kingdom,Sunnyside,London,G7 7JL
01HR84XH9H0Q2V8HA96ANXKBDH,44,United Kingdom,Killdeer,Wirral,G7 7JL
01HR84XH9JZV73YDJGCNEX24AE,16,United Kingdom,Mcguire,Eaton,F6 6IK
01HR84XH9JAFB0539S9VQVMMS9,80,United Kingdom,Springs,Leeds,F6 6IK
01HR84XH9KRKXE6167D52YT6TG,33,United Kingdom,Express,Brampton,I9 9LN
01HR84XH9M0FVEF3R2APSVGGS7,9,United Kingdom,7th,Wootton,H8 8KM
01HR84XH9MWB1QZVJV2PV4900D,68,United Kingdom,Northridge,Norton,G7 7JL
01HR84XH9NP7MSBT16GX72409W,8,United Kingdom,Farmco,Seaton,G7 7JL
01HR84XH9NFC17MXGCJW8NHB2A,100,United Kingdom,Main,Tullich,H8 8KM
01HR84XH9PQYDXW467DAYZ9D5E,97,United Kingdom,Hallows,Wirral,G7 7JL
01HR84XH9P23TJSP1NK3JFCDB6,6,United Kingdom,Old Gate,Horton,G7 7JL
01HR84XH9QR1HVVSMB3XJ5D8ZD,29,United Kingdom,Arizona,Weston,G7 7JL
01HR84XH9RB0TP6QZCNC2ZS32E,36,United Kingdom,Delladonna,Sutton,G7 7JL
01HR84XH9R8VYMN5GFMTRR2ZGV,54,United Kingdom,Blackbird,Linton,G7 7JL
01HR84XH9SGT044K9DMWG1TFSX,97,United Kingdom,Garrison,Thorpe,G7 7JL
01HR84XH9S1RCWZCKADSTSK4XK,50,United Kingdom,Lillian,West End,I9 9LN
01HR84XH9TC41MXRW692GJZCSN,19,United Kingdom,Delaware,Newtown,H8 8KM
01HR84XH9VE4CKJ1DNT5WKYDWT,21,United Kingdom,Reinke,London,G7 7JL
01HR84XH9VR45WQ95Y3RSJCQ2N,89,United Kingdom,Nova,Upton,F6 6IK
01HR84XH9WJTH19PTPJP0R9MGM,24,United Kingdom,Crescent Oaks,Aston,F6 6IK
01HR84XH9WDSE4G291CHFH8KVZ,41,United Kingdom,Little Fleur,London,G7 7JL
01HR84XH9X75232HA1TMX1PJS7,9,United Kingdom,Quincy,Norton,G7 7JL
01HR84XH9YQGXFVEJ4EXG2WY81,80,United Kingdom,Hoffman,Charlton,I9 9LN
01HR84XH9Y25NQ3V8H06WS5YE0,62,United Kingdom,Fuller,Liverpool,J1 1MO
01HR84XH8VB4K56K25GHSXPBX2,23,United Kingdom,Ridge Oak,Norton,G7 7JL
01HR84XH9HZ0G3TTTB2SFFZ5A8,65,United Kingdom,Huxley,Wootton,H8 8KM
01HR84XH9JXKF280YJVH765CP8,26,United Kingdom,Eggendart,Sheffield,J1 1MO
01HR84XH9K638BE9MRZ97HMG34,51,United Kingdom,Grasskamp,Milton,G7 7JL
01HR84XH9MGZ0GTDJAXAP1DBNE,59,United Kingdom,Pierstorff,Charlton,I9 9LN
01HR84XH9NRYZ76JGHA5QN6H7D,15,United Kingdom,Shopko,Seaton,G7 7JL
01HR84XH9PB101PPMWKEZ702YC,14,United Kingdom,South,Sutton,G7 7JL
01HR84XH9P6JRS5AHSHTW5597E,44,United Kingdom,Bay,Kinloch,H8 8KM
01HR84XH9QJC73QEMXA2TC3EFJ,40,United Kingdom,Corscot,Thorpe,G7 7JL
01HR84XH9RBH06HK6NDYWJ7WDA,92,United Kingdom,Dennis,Kirkton,H8 8KM
01HR84XH9S3Y8TN3WSNVAY51PY,32,United Kingdom,Barby,Liverpool,J1 1MO
01HR84XH9T2PBCWFSZ5CE2KAYP,55,United Kingdom,Holy Cross,Birmingham,K2 2NP
01HR84XH9VSF0R4MSJ0C3EB37S,66,United Kingdom,Chive,Craigavon,J1 1MO
01HR84XH9WBJMRTBZHGPSQZ846,34,United Kingdom,Scofield,Kinloch,H8 8KM
01HR84XH9WA29QCWAEPE4D28SY,38,United Kingdom,Vermont,Merton,G7 7JL
01HR84XH9X1S43VND53AW9NHR3,6,United Kingdom,Mcguire,Liverpool,J1 1MO
01HR84XH9YT657HE3KP3RQ3H7A,99,United Kingdom,Armistice,London,G7 7JL
01HR84XH9ZQT1JBWK1J7303NAT,34,United Kingdom,Killdeer,Newtown,H8 8KM
01HR84XHA09PYVMDHBGJEKANE7,62,United Kingdom,Melby,Bristol,H8 8KM
01HR84XHA165ECQY3HWGWSBWN4,64,United Kingdom,Talmadge,Buckland,I9 9LN
01HR84XHA2NMT8XXTHT6KMXF75,72,United Kingdom,Ridgeway,Brampton,I9 9LN
01HR84XHA2RCR0QFVDZGP399GJ,59,United Kingdom,Superior,West End,I9 9LN
01HR84XHA39HQJ52HKNB1WWHY9,93,United Kingdom,7th,Dean,E5 5HJ
01HR84XHA43GWR6K00S3YDP920,98,United Kingdom,Westend,Merton,G7 7JL
01HR84XHA57J607GYCAQRQMEPS,25,United Kingdom,Talmadge,Halton,G7 7JL
01HR84XHA6YM79Q2S36QG86MAE,73,United Kingdom,Pine View,Hatton,G7 7JL
01HR84XHA730ZX1P8ZK3H7T2R5,12,United Kingdom,Prentice,Halton,G7 7JL
01HR84XHA88ZNZWZA9A5RSAM94,58,United Kingdom,Killdeer,Kirkton,H8 8KM
01HR84XHA822XZNXH9BE3HG5CM,24,United Kingdom,Dapin,Norton,G7 7JL
01HR84XHA9MBQJXPHY2BZ2D7S8,68,United Kingdom,Warner,Kinloch,H8 8KM
01HR84XHAAF5JF3H67J6WZFC3M,4,United Kingdom,School,Hatton,G7 7JL
01HR84XH9Q6VSX3HN3KS0XRHEH,77,United Kingdom,Red Cloud,Wootton,H8 8KM
01HR84XHAD6GC9N203P5XZPNVE,66,United Kingdom,Cascade,Church End,K2 2NP
01HR84XHADWG56W77YFSHPCECB,48,United Kingdom,Dexter,Edinburgh,J1 1MO
01HR84XHAECCBQR1V64JVNK7EV,77,United Kingdom,Lakeland,Kirkton,H8 8KM
01HR84XHAFNHWW8BZFXE2H1P2Y,34,United Kingdom,Bellgrove,Newbiggin,J1 1MO
01HR84XHAG103D7XTPZFBMVHTM,83,United Kingdom,Mosinee,Linton,G7 7JL
01HR84XHAHXX54WR29BMBXMRSZ,66,United Kingdom,Bunting,Birmingham,K2 2NP
01HR84XHAJK9FHR5J1HZMDPBSV,20,United Kingdom,Mitchell,Wootton,H8 8KM
01HR84XHAK2XD2R0CH7T4N1BG9,66,United Kingdom,Clarendon,Leeds,F6 6IK
01HR84XHAM7RWQE5MN56BCFPP8,23,United Kingdom,Sutteridge,Horton,G7 7JL
01HR84XHAN2KFNT4TTRZJDRFFY,49,United Kingdom,Fairview,Leeds,F6 6IK
01HR84XHAP6C8WBA9Y73Z0KS7F,35,United Kingdom,Canary,Langley,H8 8KM
01HR84XHAPQ8MR82F4SP19C9X3,61,United Kingdom,Maryland,Whitwell,I9 9LN
01HR84XHAQCN252F9PX3CZ9SNZ,61,United Kingdom,Columbus,Merton,G7 7JL
01HR84XHARFGNQH5X3SW01X0B2,14,United Kingdom,Algoma,Wirral,G7 7JL
01HR84XHAST382JWX2BTS1FHBD,81,United Kingdom,Tony,Eaton,F6 6IK
01HR84XHAT8PC080416T08RZ9A,87,United Kingdom,Starling,Linton,G7 7JL
01HR84XHAVPD7KB06MFNSCZG3H,21,United Kingdom,Meadow Vale,Belfast,H8 8KM
01HR84XHAWAF6MMZJWJSP0DVXG,24,United Kingdom,Crowley,Sheffield,J1 1MO
01HR84XHAX8WPQ879XA36H3YXN,69,United Kingdom,Fordem,Craigavon,J1 1MO
01HR84XHAYRE81B0T669EB4D2D,94,United Kingdom,Logan,London,G7 7JL
01HR84XHAZ87PC4033CERJHQZ6,91,United Kingdom,Grim,Carlton,H8 8KM
01HR84XHAZW8RRA2TX8WMXN45A,48,United Kingdom,Dexter,Liverpool,J1 1MO
01HR84XHB0Z3V11SB43SRH9NMS,1,United Kingdom,Bowman,Middleton,J1 1MO
01HR84XHB1MB1H3XFHN4D2YP1X,67,United Kingdom,Marquette,Dean,E5 5HJ
01HR84XHB2D5TQZV37NBCHY4WA,83,United Kingdom,Cascade,Tullich,H8 8KM
01HR84XHB34YXD55H5V1XFA9DD,24,United Kingdom,Carey,East End,I9 9LN
01HR84XHB494SA9BSGYGF9FC4S,62,United Kingdom,Harbort,Kirkton,H8 8KM
01HR84XHB5GY4TSX20EY101MFM,33,United Kingdom,Namekagon,Newton,G7 7JL
01HR84XHB6F20X19TCYC5CRZ9V,10,United Kingdom,Hermina,Manchester,K2 2NP
01HR84XHB6AMA4R3X8E903YC9X,79,United Kingdom,Superior,Buckland,I9 9LN
01HR84XH9D2295JNHF29QXGX6M,87,United Kingdom,Sugar,Sheffield,J1 1MO
01HR84XHA3B9AFPJ5XSFGABJM7,31,United Kingdom,Florence,Kinloch,H8 8KM
01HR84XHA4NMT3RM5AHZNMJD8K,92,United Kingdom,Golf,Langley,H8 8KM
01HR84XHA5EHPNKX9EN0EHX99X,32,United Kingdom,Roxbury,Charlton,I9 9LN
01HR84XHA5ASQT76RF0EBV6R9N,61,United Kingdom,Saint Paul,Birmingham,K2 2NP
01HR84XHA6VNF685G4W6F4A0FE,10,United Kingdom,Fairview,Newton,G7 7JL
01HR84XHA74NN42FEQKPTVSQDH,32,United Kingdom,Straubel,Liverpool,J1 1MO
01HR84XHA8TKF7XBPJQH09ZDNV,70,United Kingdom,Scoville,Ford,E5 5HJ
01HR84XHA932R3R7GX81PYVFPG,49,United Kingdom,Sunfield,West End,I9 9LN
01HR84XHAAJ2HQNG7FARAQYZ72,31,United Kingdom,Towne,Sheffield,J1 1MO
01HR84XHAAEEVV40NDT6VDXE7J,54,United Kingdom,Shopko,East End,I9 9LN
01HR84XHAB7ZM260Q39RT2JH2F,8,United Kingdom,Warner,West End,I9 9LN
01HR84XHACPM38RG5FAPFHC5A8,29,United Kingdom,Ruskin,Milton,G7 7JL
01HR84XHADQFQ3ZXC3M7GHNWS6,30,United Kingdom,Meadow Vale,London,G7 7JL
01HR84XHAEEADNB8XBY1PTPFZJ,32,United Kingdom,Bluejay,Newtown,H8 8KM
01HR84XHAFR690YXB95DC4W6J4,31,United Kingdom,Clemons,Milton,G7 7JL
01HR84XHAGYK03D0HCV66ZSCGY,75,United Kingdom,Manley,Twyford,H8 8KM
01HR84XHAGYW6YSBNQVWK4H23H,64,United Kingdom,Rusk,Church End,K2 2NP
01HR84XHAHSFMQ6NTN947TECY1,44,United Kingdom,Ronald Regan,Wirral,G7 7JL
01HR84XHAJ0ZSMGCXQ8MREDAVF,73,United Kingdom,Scofield,Middleton,J1 1MO
01HR84XHAKV9Z1GRP20SNKYDAJ,35,United Kingdom,High Crossing,Upton,F6 6IK
01HR84XHAM38Y7YYGETBJ41J0T,82,United Kingdom,Sutteridge,Birmingham,K2 2NP
01HR84XHAN8V51Y61BR23DKJ6Z,94,United Kingdom,Fisk,Sheffield,J1 1MO
01HR84XHAPXKSP665Q7GQWEQYB,97,United Kingdom,Waubesa,Birmingham,K2 2NP
01HR84XHAQSPVB0PWHT2C7Y919,72,United Kingdom,Maywood,Kingston,I9 9LN
01HR84XHARK18SDXH6W8R40CPN,20,United Kingdom,Arapahoe,Milton,G7 7JL
01HR84XHARWBGKPQZW5F7MGXP2,28,United Kingdom,Melvin,Horton,G7 7JL
01HR84XHAS7ND7N29NBHKJT61Z,56,United Kingdom,Artisan,Newport,H8 8KM
01HR84XHATAZ2V38XFTE3NTJT2,47,United Kingdom,Morning,London,G7 7JL
01HR84XHAV194XDZHM4CTXFN71,30,United Kingdom,2nd,Horton,G7 7JL
01HR84XHAW1DCZ17ZBB8WZCWHJ,59,United Kingdom,Northridge,Church End,K2 2NP
01HR84XH9F51KBJJ19FHR8JGQM,61,United Kingdom,Bashford,Ford,E5 5HJ
01HR84XH9Y0N6GBE1YP3BYB882,3,United Kingdom,Straubel,Upton,F6 6IK
01HR84XHBXABCQS95KHW1F94A2,33,United Kingdom,Kensington,Norton,G7 7JL
01HR84XHBXR376YDC98R119TXG,52,United Kingdom,4th,Newton,G7 7JL
01HR84XHBYV3YCX6PNBK3Q6B7X,95,United Kingdom,Utah,Newport,H8 8KM
01HR84XHBYPG0Z32PAGE91RDDG,56,United Kingdom,Morrow,Tullich,H8 8KM
01HR84XHBZVYW6NJB8KK9ASN7D,97,United Kingdom,Novick,Ashley,G7 7JL
01HR84XHBZH555FKG2WS0TEMZR,54,United Kingdom,Kingsford,Edinburgh,J1 1MO
01HR84XHC0JZP4RH6AVQ7XA969,92,United Kingdom,Lakeland,Horton,G7 7JL
01HR84XHC0P64V2CS7F0NBRPN7,62,United Kingdom,Pearson,Preston,H8 8KM
01HR84XHC0BFMVXTRBV72SNVRP,41,United Kingdom,7th,Newton,G7 7JL
01HR84XHC1MZEFZVEEZX0BEF6C,28,United Kingdom,Rockefeller,Norton,G7 7JL
01HR84XHC1HQRG4MEGKNGHCGZK,88,United Kingdom,Drewry,Whitwell,I9 9LN
01HR84XHC2645JWPXY7265DRWE,90,United Kingdom,Maryland,Linton,G7 7JL
01HR84XHC2SDEWMBCDQSFGGPRS,88,United Kingdom,Little Fleur,Ford,E5 5HJ
01HR84XHC3XKDPJB0P88ZB8E99,10,United Kingdom,Bunting,Hatton,G7 7JL
01HR84XHC3BT4BJMJX3TQSXN10,87,United Kingdom,Westend,London,G7 7JL
01HR84XHC356Z9RGGA9Y54P5FQ,62,United Kingdom,Meadow Valley,Wootton,H8 8KM
01HR84XHC42VW010724N339FZ5,99,United Kingdom,Goodland,Milton,G7 7JL
01HR84XHC4K158R2Y0EVTJ6MWW,81,United Kingdom,Meadow Vale,Milton,G7 7JL
01HR84XHC5H8XVWW03F6JPCTH6,59,United Kingdom,Maple Wood,Norton,G7 7JL
01HR84XHC5KHP1C7V0JZ64HES7,97,United Kingdom,1st,Norton,G7 7JL
01HR84XHC51AVSHN0XS35JT300,26,United Kingdom,Jay,Glasgow,H8 8KM
01HR84XHC64XGR6XTXWNVB7FME,84,United Kingdom,Vahlen,Norton,G7 7JL
01HR84XHC6ACDNTER32JZYVND8,10,United Kingdom,Holy Cross,Newton,G7 7JL
01HR84XHC7RJF26E18X99X6W4G,50,United Kingdom,Park Meadow,Glasgow,H8 8KM
01HR84XHC7V1K4FVY0A5YBRK2X,98,United Kingdom,Fuller,Kingston,I9 9LN
01HR84XHC81R30NPYEK0PKHCRP,7,United Kingdom,Pepper Wood,Dean,E5 5HJ
01HR84XHC8YCGEQT8ZF5TPXGQP,8,United Kingdom,Oakridge,Tullich,H8 8KM
01HR84XHC97H4TF7HAE6C3XDH6,17,United Kingdom,Ohio,Weston,G7 7JL
01HR84XHC956SJS1EHWCBMTGZC,57,United Kingdom,Shopko,Newton,G7 7JL
01HR84XHA1NE2D2S9TPMN0RPFW,68,United Kingdom,Farmco,Aston,F6 6IK
01HR84XHAPSPJD0S7ZTR59S13J,66,United Kingdom,Northwestern,London,G7 7JL
01HR84XHAQJ75ZD5FEW4PDEHZH,68,United Kingdom,Sommers,Weston,G7 7JL
01HR84XHARENX7B2GB7GM979F1,35,United Kingdom,Prairieview,Bristol,H8 8KM
01HR84XHASRXDD5MHHWT03JXR7,70,United Kingdom,Corben,Belfast,H8 8KM
01HR84XHATBTWQ6CDYGH8BEWRX,10,United Kingdom,Tony,Upton,F6 6IK
01HR84XHATFPDEGPP14AV1G1BG,56,United Kingdom,Lakewood,Weston,G7 7JL
01HR84XHAV392HQAH1EM0WQEVZ,90,United Kingdom,Pond,Bristol,H8 8KM
01HR84XHAWVGCNMYRGHSY0SKPK,35,United Kingdom,Heath,Burnside,I9 9LN
01HR84XHAXH4FPF0F3XYWRN7JW,79,United Kingdom,Schurz,West End,I9 9LN
01HR84XHAYFNM1CS9M2DVSH763,95,United Kingdom,Eagan,Langley,H8 8KM
01HR84XHAZJ1788HZP32561T5T,54,United Kingdom,Hagan,Craigavon,J1 1MO
01HR84XHAZBCK3PD1J2HCJPMX0,70,United Kingdom,Sachtjen,Wootton,H8 8KM
01HR84XHB02SDKP9VVPZ3CT2TN,34,United Kingdom,Mariners Cove,London,G7 7JL
01HR84XHB1YVPC2NC1KW7W1XW8,7,United Kingdom,Golf View,Kingston,I9 9LN
01HR84XHB222HH6RB942J17D1Y,97,United Kingdom,Algoma,Newton,G7 7JL
01HR84XHB3VGPD2AHJVWAK0AM1,5,United Kingdom,Memorial,Charlton,I9 9LN
01HR84XHB4DA8YGEJ947F2030V,80,United Kingdom,Ronald Regan,Ashley,G7 7JL
01HR84XHB44K0W3PJQYNVJG8ST,98,United Kingdom,East,Birmingham,K2 2NP
01HR84XHB553HXJRC52EDKS4YB,11,United Kingdom,3rd,Kirkton,H8 8KM
01HR84XHB66PFV4NJYC9CVXVNV,87,United Kingdom,Reinke,Tullich,H8 8KM
01HR84XHB7BMWS06F89ZJ4203Y,58,United Kingdom,Nova,Upton,F6 6IK
01HR84XHB8XXNPS87M7FCNSBEJ,63,United Kingdom,Lillian,Newport,H8 8KM
01HR84XHB8BYYMA3WQ8RWS99CE,15,United Kingdom,Truax,Bradford,I9 9LN
01HR84XHB9BQG2GF00H86PRCHV,99,United Kingdom,Sundown,Milton,G7 7JL
01HR84XHBA6TW7ZWSCVY1C1G4X,4,United Kingdom,Golf View,Whitwell,I9 9LN
01HR84XHBB0GYJHJ2S26R4H46C,71,United Kingdom,Beilfuss,Edinburgh,J1 1MO
01HR84XHBCTB6QXJPK4S5HZ07M,43,United Kingdom,Everett,Brampton,I9 9LN
01HR84XHBD3YJ9AE067WCGQWX4,70,United Kingdom,Carey,Church End,K2 2NP
01HR84XHBEVWPVE38VP77YES7G,32,United Kingdom,Springs,Preston,H8 8KM
01HR84XHBE0GP2KV80Q19W3016,86,United Kingdom,Katie,Church End,K2 2NP
01HR84XHAR8P4RMWX3W649WZ1C,49,United Kingdom,Nevada,London,G7 7JL
01HR84XHBA8JWRQ8AR605SEAP8,72,United Kingdom,Thierer,London,G7 7JL
01HR84XHBANR2ECRSMYVF400QM,64,United Kingdom,Hermina,Whitwell,I9 9LN
01HR84XHBBH876ZQE78Y43H8YE,81,United Kingdom,Hooker,Swindon,H8 8KM
01HR84XHBC50Q6FVDFPEW54PRN,26,United Kingdom,Lotheville,Eaton,F6 6IK
01HR84XHBC24QADE38S4VRQ2AS,24,United Kingdom,Eliot,Whitchurch,K2 2NP
01HR84XHBDY2AMV5F5XT99A3HJ,59,United Kingdom,Spenser,London,G7 7JL
01HR84XHBDKG15M7DKQYJJA39J,4,United Kingdom,Grim,Upton,F6 6IK
01HR84XHBESS4NTKKK4HTD6S14,11,United Kingdom,Dayton,Wootton,H8 8KM
01HR84XHBFEHJAT94318772YZ4,36,United Kingdom,Manley,Wirral,G7 7JL
01HR84XHBF4HC0KGWS3EH783T0,59,United Kingdom,Warbler,Aston,F6 6IK
01HR84XHBG3KNJVY376PY98APJ,72,United Kingdom,Sauthoff,Sutton,G7 7JL
01HR84XHBGYD32HM3QQ5HPSMSY,74,United Kingdom,Haas,Kingston,I9 9LN
01HR84XHBHNN62MCFF5A2Y9GD5,93,United Kingdom,Farragut,Seaton,G7 7JL
01HR84XHBJAN5Y820K6NAS787G,3,United Kingdom,Sycamore,Sheffield,J1 1MO
01HR84XHBJFC4C4C1SH8A6YEHG,87,United Kingdom,Village Green,Burnside,I9 9LN
01HR84XHBK2KRA8Q7TAY3CW222,81,United Kingdom,Oriole,Sheffield,J1 1MO
01HR84XHBKYRE4ZT3ANM035XK1,67,United Kingdom,Mallory,Liverpool,J1 1MO
01HR84XHBM457A5R0K9WCK3ATK,19,United Kingdom,Fairview,Whitchurch,K2 2NP
01HR84XHBNTZBK319WFY3ABP62,40,United Kingdom,Myrtle,Upton,F6 6IK
01HR84XHBNGXGQMKFAAWH1HA7C,70,United Kingdom,Evergreen,Whitchurch,K2 2NP
01HR84XHBPA46PS65ZG2PCCPZ0,90,United Kingdom,Debs,Weston,G7 7JL
01HR84XHBP7STXN14ZF7KAXNPH,72,United Kingdom,Sage,West End,I9 9LN
01HR84XHBQ5BY5V4Z04GJPNRQB,57,United Kingdom,Cardinal,Burnside,I9 9LN
01HR84XHBQ929445J4FMCWAT2V,53,United Kingdom,Quincy,Aberdeen,I9 9LN
01HR84XHBRPAX7B5GZ60TK0F8K,10,United Kingdom,Esch,Wirral,G7 7JL
01HR84XHBS3626V2CJKKHS4BB0,43,United Kingdom,Lien,Langley,H8 8KM
01HR84XHBSRV2NR08E3RX3SNPA,18,United Kingdom,Talmadge,London,G7 7JL
01HR84XHBTQKQNM8BJZZ09JS7Y,3,United Kingdom,Sunfield,Stapleford,K2 2NP
01HR84XHBTX2PJ7ETGRJYC17F3,80,United Kingdom,Thackeray,Newport,H8 8KM
01HR84XHBV31WA1RYNRXTK4JA7,21,United Kingdom,Division,Glasgow,H8 8KM
01HR84XHAFA8JR47MZND2T1NEM,79,United Kingdom,Delladonna,Denton,G7 7JL
01HR84XHB45N4TA702W56KVA6T,87,United Kingdom,Sloan,Church End,K2 2NP
01HR84XHB5SPBBFPF7R39W24AT,77,United Kingdom,Holy Cross,London,G7 7JL
01HR84XHB62CVBE6F74NYRNS8M,74,United Kingdom,Sachtjen,Burnside,I9 9LN
01HR84XHB68YDVZ08JZFR3VF7H,89,United Kingdom,Burrows,Buckland,I9 9LN
01HR84XHB7SPYRJE78NP9RRNT1,85,United Kingdom,Elgar,Seaton,G7 7JL
01HR84XHB875CRBCH0NZH60AFF,63,United Kingdom,Jana,Swindon,H8 8KM
01HR84XHB910B94HMB17CZ86YT,76,United Kingdom,Dawn,Liverpool,J1 1MO
01HR84XHBAT4T91SV5MK0GMS6R,9,United Kingdom,Scofield,Halton,G7 7JL
01HR84XHBBV1E7S3B41S6PYV6D,98,United Kingdom,7th,Bradford,I9 9LN
01HR84XHBC3WA8714SCTWK40Q9,38,United Kingdom,Ruskin,Marston,H8 8KM
01HR84XHBC05N1081F4DQY17T7,18,United Kingdom,Kenwood,Merton,G7 7JL
01HR84XHBDJYFX3PTQ2TDSE6X7,93,United Kingdom,Golf View,Burnside,I9 9LN
01HR84XHBEST432AEG36F1RZF3,44,United Kingdom,Oxford,Belfast,H8 8KM
01HR84XHBFYF7F5X015Q7YF7BH,70,United Kingdom,Russell,London,G7 7JL
01HR84XHBGWSRQXJAZ1RBAKM4J,57,United Kingdom,Eagle Crest,Walton,G7 7JL
01HR84XHBH7X5XMXEKJ7CMQ1N4,48,United Kingdom,Tomscot,Newton,G7 7JL
01HR84XHBJ4MBFX0QM6G1ZEQ11,70,United Kingdom,Mallory,Milton,G7 7JL
01HR84XHBJVZ284ZR6AM1SXVY1,54,United Kingdom,Bluestem,Craigavon,J1 1MO
01HR84XHBK2BKFK3Z9H415SPMC,39,United Kingdom,Superior,London,G7 7JL
01HR84XHBMXT2EYW4HA8SHYVMH,61,United Kingdom,Cambridge,Marston,H8 8KM
01HR84XHBN7M2S90CSQXQY9KNS,55,United Kingdom,Fieldstone,Leeds,F6 6IK
01HR84XHBPFGCWW36RQ97P5H1T,19,United Kingdom,Onsgard,Middleton,J1 1MO
01HR84XHBQ4VFQVC98BQPFSB3W,78,United Kingdom,Dapin,Buckland,I9 9LN
01HR84XHBRCK6FD3DS6DY2MJXN,16,United Kingdom,Riverside,Milton,G7 7JL
01HR84XHBSAMVFBYADKFWPN2KH,20,United Kingdom,Lighthouse Bay,Sheffield,J1 1MO
01HR84XHBSAGM573NP20SZPM9Z,32,United Kingdom,Lakewood Gardens,Newtown,H8 8KM
01HR84XHBTJ95H1QJ36S4YR23S,28,United Kingdom,Trailsway,Liverpool,J1 1MO
01HR84XHBVNH1E62R2BRBVT1BR,7,United Kingdom,Hoard,Charlton,I9 9LN
01HR84XHBW4STCT6FGJSZXFT6F,46,United Kingdom,Ronald Regan,Ashley,G7 7JL
01HR84XHBXD88S6BK6EMWHRMG7,69,United Kingdom,Rowland,Sheffield,J1 1MO
01HR84XHAYSMRREQMZZ8ZRM5QR,45,United Kingdom,Lotheville,Newbiggin,J1 1MO
01HR84XHBMXB43KYKNEE0VE6K3,96,United Kingdom,Pennsylvania,Sheffield,J1 1MO
01HR84XHBNHG8RKFZMP9X8Y0AX,60,United Kingdom,Carpenter,Newbiggin,J1 1MO
01HR84XHBN8K5ZYTZ2A33FQ0YD,52,United Kingdom,Warrior,Weston,G7 7JL
01HR84XHBPSZKPH8P723726DVM,10,United Kingdom,Hallows,Kingston,I9 9LN
01HR84XHBQ0CBTRR75QTSN4RE3,3,United Kingdom,Sheridan,Normanton,J1 1MO
01HR84XHBR2E48H1KDEFGVGSXF,6,United Kingdom,Westend,Walton,G7 7JL
01HR84XHBSFFK9KMFHAXZH9WVV,58,United Kingdom,Atwood,London,G7 7JL
01HR84XHBTQ6F29T3ZWTC8DNZR,34,United Kingdom,Rigney,Sutton,G7 7JL
01HR84XHBVPK4WEKRZ5A5T96NW,67,United Kingdom,Montana,Liverpool,J1 1MO
01HR84XHBW4XZAQ4XH35W11S0W,30,United Kingdom,Atwood,East End,I9 9LN
01HR84XHBWDZCD0C9S2TBTZ32E,1,United Kingdom,Mandrake,Merton,G7 7JL
01HR84XHBX8VE4KK8HF6XDMNE9,52,United Kingdom,Glacier Hill,Whitwell,I9 9LN
01HR84XHBY408R5WC49Q89XWW1,32,United Kingdom,Prentice,Newton,G7 7JL
01HR84XHBZ0JF61G6CY4MT5WDE,19,United Kingdom,Corry,Twyford,H8 8KM
01HR84XHC0VMSWDYJ7DYWASJWT,43,United Kingdom,Shopko,Carlton,H8 8KM
01HR84XHC1HVVMZ63VYCP6CR7A,87,United Kingdom,Badeau,Normanton,J1 1MO
01HR84XHC2QZR34V7XJ2B1SCS1,11,United Kingdom,Forest,Newtown,H8 8KM
01HR84XHC2NTQZCVASBRMCSBKB,52,United Kingdom,Corben,Buckland,I9 9LN
01HR84XHC3ZQKNXMHQDVY72FYR,80,United Kingdom,Doe Crossing,Sheffield,J1 1MO
01HR84XHC4J9A8XTX45HH18MVQ,61,United Kingdom,Basil,Marston,H8 8KM
01HR84XHC5JVDPKP0PAP5HEHHS,61,United Kingdom,Moose,London,G7 7JL
01HR84XHC6EG9GH6PTKS0ANZ6P,78,United Kingdom,Maple Wood,London,G7 7JL
01HR84XHC7141VT45TXHF1708W,15,United Kingdom,Meadow Ridge,Horton,G7 7JL
01HR84XHC8T8ASV5ZK0JM3ZKY4,83,United Kingdom,Mallard,Hatton,G7 7JL
01HR84XHC8H0Y7ENYCMDC0TGZ3,44,United Kingdom,Becker,Hatton,G7 7JL
01HR84XHC9J7C0QH61DWGQGR1R,48,United Kingdom,Fairfield,Sheffield,J1 1MO
01HR84XHCA0Y9W14EC0FSFTD43,82,United Kingdom,Nova,Leeds,F6 6IK
01HR84XHCB70QQ41MZ7BRW599W,21,United Kingdom,Bowman,Hatton,G7 7JL
01HR84XHCCVAZG6Z35R4JQZMMM,67,United Kingdom,Shelley,Walton,G7 7JL
01HR84XHCD87SWQDXVP352JCKZ,62,United Kingdom,Shopko,Milton,G7 7JL
01HR84XHB67156BJRTBJHZ82D7,21,United Kingdom,Corscot,Eaton,F6 6IK
01HR84XHBTZYFD7H53AHABNFP2,95,United Kingdom,Mitchell,West End,I9 9LN
01HR84XHBVAF2GR996ABFYANQP,78,United Kingdom,Fisk,Edinburgh,J1 1MO
01HR84XHBWDS7054M45FB6E9SP,99,United Kingdom,Anderson,Newton,G7 7JL
01HR84XHBXYZCF1MS5X3VZ32KG,61,United Kingdom,Steensland,London,G7 7JL
01HR84XHBYCT6DT2T2M28ZBTZ5,76,United Kingdom,Lyons,Aston,F6 6IK
01HR84XHBZQNKKMTXW0K1X66V2,64,United Kingdom,Declaration,London,G7 7JL
01HR84XHC0FBSVN5NA7MVC58BW,83,United Kingdom,Hintze,Edinburgh,J1 1MO
01HR84XHC1SQMSDYDXA6GPVSFX,22,United Kingdom,Clyde Gallagher,Whitchurch,K2 2NP
01HR84XHC2TV0QVVYWESBNK9NQ,40,United Kingdom,Caliangt,Newbiggin,J1 1MO
01HR84XHC2B6JRPA7ZNS81GGE2,10,United Kingdom,Briar Crest,Sutton,G7 7JL
01HR84XHC3WE4BGM8BFKNTSFXB,5,United Kingdom,Miller,Church End,K2 2NP
01HR84XHC4N750MV5WE4K00XFD,48,United Kingdom,Sugar,Pentre,G7 7JL
01HR84XHC78EVFMQP862EVQ493,44,United Kingdom,Spenser,Weston,G7 7JL
01HR84XHC8MZJN00FF2T5DM7KN,80,United Kingdom,Maryland,West End,I9 9LN
01HR84XHC92P1EPPNMP5DR5NRG,97,United Kingdom,Mayfield,Dean,E5 5HJ
01HR84XHCA1YMB7Z3C35A5ADST,30,United Kingdom,David,Swindon,H8 8KM
01HR84XHCBQ2VFYRFZPSS7PNFC,60,United Kingdom,Hallows,Manchester,K2 2NP
01HR84XHCCGDGXW9N13CM97N25,29,United Kingdom,Golden Leaf,Milton,G7 7JL
01HR84XHCDXRMN9RZ4Q7ADFAAN,56,United Kingdom,Colorado,Church End,K2 2NP
01HR84XHCDPR89S4VJMXQWPAFA,88,United Kingdom,Charing Cross,Weston,G7 7JL
01HR84XHCEJ3JY2BQRENASDKW7,2,United Kingdom,South,Ford,E5 5HJ
01HR84XHCF0MC9H04Q1D8TPSKF,96,United Kingdom,Judy,Marston,H8 8KM
01HR84XHCGAMN7N860G1BZM71N,5,United Kingdom,Hauk,Kirkton,H8 8KM
01HR84XHCHXKGM7CH4F2ECXRQ3,53,United Kingdom,Lighthouse Bay,Langley,H8 8KM
01HR84XHCJ3J1JFCK8CPRCMHX7,25,United Kingdom,Vidon,Swindon,H8 8KM
01HR84XHCK58N7F98FA5K2KPVD,20,United Kingdom,Springview,Swindon,H8 8KM
01HR84XHCM1VH6YJEMFT7SDWK8,21,United Kingdom,Portage,London,G7 7JL
01HR84XHCNE697VBMBHPAX85NK,87,United Kingdom,Elka,Milton,G7 7JL
01HR84XHCN1EVZGZYMQ4RV31ZR,25,United Kingdom,Warner,Upton,F6 6IK
01HR84XHCP7QTVCRRCMHFJFP80,67,United Kingdom,Toban,Denton,G7 7JL
01HR84XHAXVP1GE8C5MV4DK2ZN,40,United Kingdom,Declaration,Church End,K2 2NP
01HR84XHBKYEZKBAY5NDWXMKGP,92,United Kingdom,Spohn,Church End,K2 2NP
01HR84XHBMKH1SJSPE7BDNM080,33,United Kingdom,Westend,Glasgow,H8 8KM
01HR84XHBND014C3QVJRWJEAMA,67,United Kingdom,Springs,Bradford,I9 9LN
01HR84XHBNSTZ781CGT1ZE1XGY,47,United Kingdom,Clarendon,Norton,G7 7JL
01HR84XHBPB98E8V0YHQ5BPGH2,60,United Kingdom,Arizona,Church End,K2 2NP
01HR84XHBQAAP2RQK3DDDDDB96,73,United Kingdom,Packers,Birmingham,K2 2NP
01HR84XHBRJB9GW5Y3807ZFF9J,88,United Kingdom,Washington,Dean,E5 5HJ
01HR84XHBSDRK5VVB4EB8KFY2H,47,United Kingdom,Sherman,Norton,G7 7JL
01HR84XHBTRBR9QXP8F89C6ND1,17,United Kingdom,Swallow,Birmingham,K2 2NP
01HR84XHBTT8AR12A7AGCFWBZN,99,United Kingdom,Lakewood Gardens,London,G7 7JL
01HR84XHBVNJCWS28TYKGH08E5,40,United Kingdom,Starling,Middleton,J1 1MO
01HR84XHBW8AME7GZANE35E67V,79,United Kingdom,8th,Wootton,H8 8KM
01HR84XHBXA3GRAB377SKRCTD9,85,United Kingdom,Canary,Newton,G7 7JL
01HR84XHBY0CTJRV5X6V6XC0XT,21,United Kingdom,Leroy,Newtown,H8 8KM
01HR84XHBZ8Z341Q96AMEKR3F0,8,United Kingdom,Morning,Swindon,H8 8KM
01HR84XHC0PW3GQD1FVNQ3FMRY,33,United Kingdom,Harbort,Seaton,G7 7JL
01HR84XHC0WNYT7G33Z9ZX2ZYY,84,United Kingdom,Harper,Belfast,H8 8KM
01HR84XHC1PCJYSVCH222J90RR,26,United Kingdom,Evergreen,Newtown,H8 8KM
01HR84XHC260120QT3P4JXNJBG,74,United Kingdom,Steensland,Denton,G7 7JL
01HR84XHC3X36CMCZS907W5N6N,3,United Kingdom,Ryan,Norton,G7 7JL
01HR84XHC4MWEY1MW2VYKWEJAN,28,United Kingdom,Spohn,Liverpool,J1 1MO
01HR84XHC5VX423VG8GD079D4G,34,United Kingdom,Debs,Sutton,G7 7JL
01HR84XHC6PYDGJAANX32MEYV1,59,United Kingdom,Pine View,Linton,G7 7JL
01HR84XHC6187TP4HTCS0WCNFC,15,United Kingdom,Dwight,Aston,F6 6IK
01HR84XHC722BPYETZ55E74NR0,26,United Kingdom,Cambridge,Aston,F6 6IK
01HR84XHC8PF3YP7W5HQJMHHGE,13,United Kingdom,Jackson,Liverpool,J1 1MO
01HR84XHC9KBQBT01753TC22A7,22,United Kingdom,Iowa,Newbiggin,J1 1MO
01HR84XHCASVZYSVZCCTXP8ZYK,23,United Kingdom,Morningstar,Merton,G7 7JL
01HR84XHCB1BTWNB38SW3WRVE9,19,United Kingdom,Northridge,Halton,G7 7JL
01HR84XHCC2KVPKR35RNKXG5YC,31,United Kingdom,Hovde,Seaton,G7 7JL
01HR84XHBM1VQ7NGS4MC8XPJKC,26,United Kingdom,Nancy,Twyford,H8 8KM
01HR84XHC8ESVQYE6ZPV3CNMXY,57,United Kingdom,Eastwood,Milton,G7 7JL
01HR84XHC99KEEJFRAWHY1BD8T,45,United Kingdom,Sullivan,Sheffield,J1 1MO
01HR84XHC90NP8X0AGXMDCHPYQ,33,United Kingdom,Clyde Gallagher,Leeds,F6 6IK
01HR84XHCA3MW8TT0AXQVZATSR,99,United Kingdom,Colorado,London,G7 7JL
01HR84XHCBQYPTP7AA47CD5VXE,72,United Kingdom,Shopko,Liverpool,J1 1MO
01HR84XHCBJ8ZZGHSTTP25FFZF,59,United Kingdom,Bluestem,Sutton,G7 7JL
01HR84XHCCNPND7WQDNW1TMW40,97,United Kingdom,Dahle,Eaton,F6 6IK
01HR84XHCC4V49C9PR0XDZR16N,37,United Kingdom,Dryden,Ashley,G7 7JL
01HR84XHCDP2RKEYPMKQSCYQ4Y,73,United Kingdom,Farragut,Horton,G7 7JL
01HR84XHCDY19RW7NWSN4NSXG8,82,United Kingdom,Pond,Brampton,I9 9LN
01HR84XHCED75D4N90TXTZ45DQ,92,United Kingdom,Fieldstone,Church End,K2 2NP
01HR84XHCF4R874NK8RCF720YK,59,United Kingdom,Heffernan,Pentre,G7 7JL
01HR84XHCGFJ2BFVJPZY2ZWADD,2,United Kingdom,Forest,Twyford,H8 8KM
01HR84XHCGAENY1D5KGAYBQHTQ,86,United Kingdom,Sutherland,Pentre,G7 7JL
01HR84XHCHNSDCTPB25N5PDFQ1,3,United Kingdom,Marcy,Thorpe,G7 7JL
01HR84XHCHEGB3XZ6NYWTA89EM,64,United Kingdom,Carioca,Normanton,J1 1MO
01HR84XHCJWXCN0XW1EM4YC4M5,40,United Kingdom,Clarendon,Twyford,H8 8KM
01HR84XHCKET0S3N4CHTB0D88R,2,United Kingdom,Moland,Kingston,I9 9LN
01HR84XHCKMDVS641MH440F8N2,94,United Kingdom,Schlimgen,Birmingham,K2 2NP
01HR84XHCMJ88NS1ZN281TTEA1,43,United Kingdom,Twin Pines,Buckland,I9 9LN
01HR84XHCMB1NR5ZW0SXANKJ76,31,United Kingdom,Dayton,Merton,G7 7JL
01HR84XHCNV95XMM014MDGY57R,87,United Kingdom,Duke,Carlton,H8 8KM
01HR84XHCPVMDKS8974YDAW0Y1,80,United Kingdom,Little Fleur,West End,I9 9LN
01HR84XHCPQCD3X5JWT8X83J55,42,United Kingdom,Amoth,Walton,G7 7JL
01HR84XHCQHD1PGBF2783Z97NR,64,United Kingdom,Rutledge,Belfast,H8 8KM
01HR84XHCR6QD7QKVS811X48AQ,31,United Kingdom,Monument,Kirkton,H8 8KM
01HR84XHCR9BSGP0JFESYJKK11,79,United Kingdom,Carberry,Charlton,I9 9LN
01HR84XHCSJPXP9ZRXZ35PPVA6,74,United Kingdom,Raven,Preston,H8 8KM
01HR84XHCS65EG93V56MBK050Y,32,United Kingdom,Forster,Leeds,F6 6IK
01HR84XHCTXP7XTM6P6YN12XSV,96,United Kingdom,Rigney,Kingston,I9 9LN
01HR84XHBZFFD89W34R03BDPVH,98,United Kingdom,Autumn Leaf,Normanton,J1 1MO
01HR84XHCG4CQQZB9VMGBVWCJF,27,United Kingdom,Stuart,Halton,G7 7JL
01HR84XHCH0519NTCQK500PHKT,24,United Kingdom,Rockefeller,Newport,H8 8KM
01HR84XHCJK98C8J5JPQKKVRJY,36,United Kingdom,Schmedeman,Sheffield,J1 1MO
01HR84XHCK7B972KB1KH5DWFJ7,5,United Kingdom,Anderson,East End,I9 9LN
01HR84XHCM0HHMHS5Q95GQFBPE,81,United Kingdom,6th,East End,I9 9LN
01HR84XHCN3GXQVMP1BNQB4BS0,86,United Kingdom,Sauthoff,Kingston,I9 9LN
01HR84XHCPC1G95BXSY0Q7THT2,18,United Kingdom,Weeping Birch,Newport,H8 8KM
01HR84XHCQ1N8DWAJE3Z06R9ZZ,85,United Kingdom,Harbort,Church End,K2 2NP
01HR84XHCQT28YWGGEKAA6VT1F,77,United Kingdom,Stuart,Denton,G7 7JL
01HR84XHCREV8W8QTRYE29RXXZ,43,United Kingdom,Roth,Stapleford,K2 2NP
01HR84XHCS1JD3ZPQEQED3229G,67,United Kingdom,Mcbride,Belfast,H8 8KM
01HR84XHCTN8HCXZZJ7HQM0Q7Q,55,United Kingdom,Kennedy,Sheffield,J1 1MO
01HR84XHCVGX23Q5T4T6BQJMP9,9,United Kingdom,Lerdahl,Horton,G7 7JL
01HR84XHCW3GBFA8ME1YBDJV7H,75,United Kingdom,Arrowood,Upton,F6 6IK
01HR84XHCX7HVBD9KHNABFCGDN,62,United Kingdom,Bobwhite,Linton,G7 7JL
01HR84XHCYM3WVFVET1Y6VKADA,76,United Kingdom,Forest Run,East End,I9 9LN
01HR84XHCZWWFDPE3RK8Y1P7KZ,92,United Kingdom,Muir,West End,I9 9LN
01HR84XHD0312ZPSZEZJ7CQY2Y,21,United Kingdom,Pierstorff,Eaton,F6 6IK
01HR84XHD1R5A6J7AY1TP8JJHD,37,United Kingdom,Armistice,Aberdeen,I9 9LN
01HR84XHD1VZKXS09T6PWG7NZ5,6,United Kingdom,International,Sutton,G7 7JL
01HR84XHD2PBZQC4B1Y6SFKQPD,1,United Kingdom,Summer Ridge,Halton,G7 7JL
01HR84XHD3GF3GHJJJ7K4D9J4G,62,United Kingdom,Nancy,Newport,H8 8KM
01HR84XHD4ZFDE3WP2KCAFHS7P,41,United Kingdom,Rowland,Aston,F6 6IK
01HR84XHD5AEREHT3TDPF0F9SG,76,United Kingdom,Lillian,Kirkton,H8 8KM
01HR84XHD6EMEQ31D9NQXE6ME4,65,United Kingdom,Stephen,Upton,F6 6IK
01HR84XHD7BBRQ81HKFP62S5PD,86,United Kingdom,Clyde Gallagher,Sutton,G7 7JL
01HR84XHD8YG4WR45J93TE85FH,82,United Kingdom,Village Green,Liverpool,J1 1MO
01HR84XHD8Q2Z96SW6DYKD2YAC,68,United Kingdom,Oneill,East End,I9 9LN
01HR84XHD9JCG1S57N5Y70E2NW,30,United Kingdom,Barby,Wirral,G7 7JL
01HR84XHD9PWW1RH9AXK6BYZ0M,16,United Kingdom,Hovde,London,G7 7JL
01HR84XHC3SXEFFSVP0WM5F29P,24,United Kingdom,Moland,Newport,H8 8KM
01HR84XHCNRG08JQT9V0BR9C1P,10,United Kingdom,Glendale,Church End,K2 2NP
01HR84XHCP86HXH3ZPCBJNPXPG,85,United Kingdom,1st,Stapleford,K2 2NP
01HR84XHCQ08X5BADB5D0EYBY3,52,United Kingdom,Mayer,Burnside,I9 9LN
01HR84XHCQ927RYWB8QWEC9R2J,13,United Kingdom,Blaine,Halton,G7 7JL
01HR84XHCRQZV8FNVWC4XSPX8G,51,United Kingdom,Lien,Pentre,G7 7JL
01HR84XHCRBEE8Y8Z6KSGM0NNB,85,United Kingdom,Nancy,Carlton,H8 8KM
01HR84XHCSWS95KZCNK5GPCP38,15,United Kingdom,Oakridge,Wirral,G7 7JL
01HR84XHCTPF82R77B5KYKEKHZ,9,United Kingdom,Grim,Ford,E5 5HJ
01HR84XHCTSG0EYJ4B3FFJG9TG,54,United Kingdom,West,Aberdeen,I9 9LN
01HR84XHCVXK3QRRZ5FAHYY1QG,81,United Kingdom,Gulseth,Birmingham,K2 2NP
01HR84XHCVCKJCQAD259BR1X7F,86,United Kingdom,Eagle Crest,Liverpool,J1 1MO
01HR84XHCWT87TJK15RZ957RGJ,9,United Kingdom,Farmco,Halton,G7 7JL
01HR84XHCXW5NTX8KQACC1267R,6,United Kingdom,American,Stapleford,K2 2NP
01HR84XHCX3J1ZCBY8Z6RE9KF9,8,United Kingdom,Bowman,Upton,F6 6IK
01HR84XHCYXK65N7P7F3CVW6RC,45,United Kingdom,Crowley,Twyford,H8 8KM
01HR84XHCZWDC1DDWV4J1PH8CJ,76,United Kingdom,Vermont,Eaton,F6 6IK
01HR84XHCZHAN7F53GMXSESVZX,28,United Kingdom,Memorial,Newbiggin,J1 1MO
01HR84XHD021DTDQY7KCAEV0YY,52,United Kingdom,Toban,Upton,F6 6IK
01HR84XHD0XPK5Y90BD1CZMK36,73,United Kingdom,Dennis,Eaton,F6 6IK
01HR84XHD1KDZ34HWVTYXTH4E6,91,United Kingdom,Russell,London,G7 7JL
01HR84XHD1EZ1VTN684WKQY7D3,27,United Kingdom,Roth,Norton,G7 7JL
01HR84XHD2MHZSH1C69CGF9MYX,35,United Kingdom,Ronald Regan,Liverpool,J1 1MO
01HR84XHD3V4XTP9DPG50TTK10,75,United Kingdom,4th,Bristol,H8 8KM
01HR84XHD3C7M3HQ17KC5EAMT0,37,United Kingdom,Moland,Liverpool,J1 1MO
01HR84XHD4611BZFR0PCNK48ZV,44,United Kingdom,Sloan,Church End,K2 2NP
01HR84XHD4FBJ9A902SD6HJWFC,59,United Kingdom,Summit,Aberdeen,I9 9LN
01HR84XHD56DF316AQFHECMTGF,96,United Kingdom,Roth,Milton,G7 7JL
01HR84XHD68BZTKQCKT9QJQXSZ,18,United Kingdom,New Castle,Sheffield,J1 1MO
01HR84XHD6CQW14SF9GFAFAS4X,100,United Kingdom,Dorton,Denton,G7 7JL
01HR84XHD7H7CZ05XHYF0RYM13,83,United Kingdom,Magdeline,Sheffield,J1 1MO
01HR84XHC3V8VAE2MGE2YNX9JF,35,United Kingdom,Kennedy,Ford,E5 5HJ
01HR84XHCN661804ZR4J5DETFD,46,United Kingdom,Mayfield,Glasgow,H8 8KM
01HR84XHCNCTH8WTWZ0YFRSHXV,69,United Kingdom,Mesta,Walton,G7 7JL
01HR84XHCPXWK3E8NXJ5RXDVK0,82,United Kingdom,Crest Line,Buckland,I9 9LN
01HR84XHCPF6MQCMJ48GTK81G4,64,United Kingdom,Porter,Preston,H8 8KM
01HR84XHCQ5WGX4VX06TDCPCHM,7,United Kingdom,Browning,Newbiggin,J1 1MO
01HR84XHCRPRHPAF9N6Z93PARN,22,United Kingdom,Jenifer,Hatton,G7 7JL
01HR84XHCR15ZHZFWQCTGA8CCN,94,United Kingdom,Mosinee,West End,I9 9LN
01HR84XHCSGJFEXBWE8EV3CSBM,24,United Kingdom,Weeping Birch,London,G7 7JL
01HR84XHCT9BA0QTPEY2E738RQ,83,United Kingdom,Iowa,Upton,F6 6IK
01HR84XHCTBAPTCWWYQB06ZP7B,97,United Kingdom,Killdeer,London,G7 7JL
01HR84XHCVV81H5JGC19M8HVER,64,United Kingdom,Pankratz,Ashley,G7 7JL
01HR84XHCV4BDDT90GDQGFX1SR,65,United Kingdom,Jackson,Walton,G7 7JL
01HR84XHCWSPMH4EW6Q9BY4QT3,89,United Kingdom,Lake View,Wirral,G7 7JL
01HR84XHCX5DC9PJQWZFH18S9T,49,United Kingdom,Comanche,Liverpool,J1 1MO
01HR84XHCXA0J6AJGXJBM26CEC,81,United Kingdom,Mesta,Norton,G7 7JL
01HR84XHCY4WDVE3Z6Z4D4G6GQ,84,United Kingdom,Lindbergh,London,G7 7JL
01HR84XHCZSPPVB6636FCWVYT0,63,United Kingdom,Summer Ridge,Newbiggin,J1 1MO
01HR84XHCZ3QQMSGGS2NXSHD9V,87,United Kingdom,School,Weston,G7 7JL
01HR84XHD0DKGAMRNCM1FJV4BM,74,United Kingdom,Forest,Liverpool,J1 1MO
01HR84XHD0YJ2T35HSSDP4M81Y,74,United Kingdom,Golf,Tullich,H8 8KM
01HR84XHD1VGKMVYPRB947GP4G,19,United Kingdom,Veith,Edinburgh,J1 1MO
01HR84XHD2T6RSV8Z0H5VJ316T,10,United Kingdom,Eliot,Buckland,I9 9LN
01HR84XHD2ZSS08GESK3JXMM62,30,United Kingdom,Eliot,Charlton,I9 9LN
01HR84XHD3M3XM74RWQAJ36N66,51,United Kingdom,Eagan,Wirral,G7 7JL
01HR84XHD3E9TRG6C7PA3FRF3S,93,United Kingdom,Prairie Rose,Sheffield,J1 1MO
01HR84XHD4Z1WADRM3KQQXTSHC,37,United Kingdom,Northport,Wirral,G7 7JL
01HR84XHD5EM87N3FDBNMX0F8F,75,United Kingdom,Milwaukee,Sheffield,J1 1MO
01HR84XHD53YQEVZF5DYV9SEQG,19,United Kingdom,Transport,London,G7 7JL
01HR84XHD6RZY80FQH3DJ5Z7NV,83,United Kingdom,Lakewood Gardens,Aberdeen,I9 9LN
01HR84XHD6N15XQGWFA0CVDWD2,31,United Kingdom,Carpenter,Norton,G7 7JL
01HR84XHCGJQYGPY704RTWP9S6,61,United Kingdom,Moose,London,G7 7JL
01HR84XHD50REMK99F5ZR0QCGF,83,United Kingdom,Center,Bristol,H8 8KM
01HR84XHD6KHPQ23GXV64NJ35Y,25,United Kingdom,Iowa,Wootton,H8 8KM
01HR84XHD71ZZHQJ4V4BK07ADJ,44,United Kingdom,Oak,Sheffield,J1 1MO
01HR84XHD8VH4MZ2898Y8XFAD5,6,United Kingdom,Butterfield,Middleton,J1 1MO
01HR84XHD9HJV3TVXS42JXM8ZC,20,United Kingdom,Havey,Brampton,I9 9LN
01HR84XHDAR17T65BMXDCQEQQ8,22,United Kingdom,Cottonwood,Seaton,G7 7JL
01HR84XHDB8AF7Z67B6001G05P,24,United Kingdom,Mcbride,Milton,G7 7JL
01HR84XHDCQFYFYV3TJ1RBSZ3V,37,United Kingdom,Hoffman,Bradford,I9 9LN
01HR84XHDCRSX5M9PMRDMN4BEN,98,United Kingdom,Hauk,Linton,G7 7JL
01HR84XHDD8C0GAY1Y18Q9XM20,28,United Kingdom,Moulton,Langley,H8 8KM
01HR84XHDERHCNJQJ187PFY1G6,32,United Kingdom,Lerdahl,Denton,G7 7JL
01HR84XHDFZWZ2FVS65ECPZKQM,4,United Kingdom,Claremont,East End,I9 9LN
01HR84XHDG6BR6CWAKE40XYJG9,25,United Kingdom,6th,Kingston,I9 9LN
01HR84XHDHGW6WXSEM64CVNB1Q,75,United Kingdom,Northfield,Edinburgh,J1 1MO
01HR84XHDJY66B8RXFF3TTFYJ0,35,United Kingdom,Mallory,Kirkton,H8 8KM
01HR84XHDKGKQAY28AFCSNBEFH,52,United Kingdom,Colorado,Denton,G7 7JL
01HR84XHDKY0XQ511Q5J52NYQZ,74,United Kingdom,Farmco,Sheffield,J1 1MO
01HR84XHDMHBSG47JXEYMS7FK9,23,United Kingdom,Sauthoff,Newbiggin,J1 1MO
01HR84XHDNQPC6TQCR3V2REJ2N,41,United Kingdom,Cody,Dean,E5 5HJ
01HR84XHDPRBPP7T1S7P4ZK781,84,United Kingdom,Blackbird,Newton,G7 7JL
01HR84XHDQX84E3R3DW5VHGY4B,51,United Kingdom,Lindbergh,Upton,F6 6IK
01HR84XHDR18W0THM8KYSRDV2D,100,United Kingdom,Spenser,Burnside,I9 9LN
01HR84XHDS3HKNW8MCSEPQX8J1,6,United Kingdom,Lukken,Milton,G7 7JL
01HR84XHDT0F96YNG45HWP1VVQ,52,United Kingdom,Monterey,Kirkton,H8 8KM
01HR84XHDVV0SQK8VB1TYMB0VX,77,United Kingdom,Forster,Stapleford,K2 2NP
01HR84XHDVS32FYPWMD16VS5RV,32,United Kingdom,West,Sheffield,J1 1MO
01HR84XHDW9RSY86KP25V2VKNW,19,United Kingdom,Donald,Burnside,I9 9LN
01HR84XHDXH0RRX6MH10X76555,24,United Kingdom,Clove,West End,I9 9LN
01HR84XHDYV8R7PPPRY4XZW794,15,United Kingdom,Derek,Burnside,I9 9LN
01HR84XHDZM1FQVQ4A07YQ8TKY,40,United Kingdom,Hauk,Craigavon,J1 1MO
01HR84XHE0YBWB6X6P4MTH1HA2,92,United Kingdom,Merrick,Upton,F6 6IK
01HR84XHE129FGBGAN1R77SY3Q,39,United Kingdom,Sullivan,Halton,G7 7JL
01HR84XHE2KXXEBHS01JT142QG,26,United Kingdom,Manitowish,Walton,G7 7JL
01HR84XHE23W924675AY9BYCQN,22,United Kingdom,Fair Oaks,Wirral,G7 7JL
01HR84XHE3DZHQJA5GT9RW349V,44,United Kingdom,East,Newbiggin,J1 1MO
01HR84XHE4CKC83FVQ3YY349E5,62,United Kingdom,Brickson Park,Upton,F6 6IK
01HR84XHE5ZWZG7Q4EMQSEZJRT,43,United Kingdom,Veith,Norton,G7 7JL
01HR84XHE5B26KGY0ZF2HSEEJQ,78,United Kingdom,Anniversary,Marston,H8 8KM
